latitude,longitude,station_name,state,district,watershed_code
17.38333333,78.52083333,Amberpet-PZ,Telangana,Hyderabad,04
17.4,78.50027778,Bagh Lingampally-PZ,Telangana,Hyderabad,04
17.43611111,78.45833333,Begumpet-PZ (Balkampet),Telangana,Hyderabad,04
17.4625,78.47916667,Boinpally-PZ,Telangana,Hyderabad,04
17.44444444,78.43611111,Erragadda-PZ,Telangana,Hyderabad,04
17.38611111,78.48611111,Koti-PZ,Telangana,Hyderabad,04
17.41805556,78.52916667,Osmania University-PZ 1,Telangana,Hyderabad,04
17.45277778,78.49444444,Picket-2-PZ,Telangana,Hyderabad,04
17.47361111,78.5125,Tirumalgiri-PZ,Telangana,Hyderabad,04
17.39166667,78.475,Nampally-PZ,Telangana,Hyderabad,04
17.44305556,78.50972222,West Maredpally-PZ,Telangana,Hyderabad,04
17.33055556,78.47,Falaknama-PZ,Telangana,Hyderabad,04
17.45277778,78.49444444,Picket-1-PZ,Telangana,Hyderabad,04
17.40055556,78.5175,DD Colony 2012DW,Telangana,Hyderabad,04
17.36805556,78.48638889,Malakpet 2012DW,Telangana,Hyderabad,04
17.41944444,78.52055556,Tarnaka 2012DW,Telangana,Hyderabad,04
17.32472222,78.48027778,Chandrayangutta,Telangana,Hyderabad,04
17.44666667,78.47388889,BegampetIMD,Telangana,Hyderabad,04
17.3759957,78.4238913,Langarhouse_1,Telangana,Hyderabad,04
17.3887504,78.5180905,Amberpet_1,Telangana,Hyderabad,04
17.4005211,78.5001472,Bagh Lingampally-PZ_1,Telangana,Hyderabad,04
17.445396,78.451855,Begampet (Balkampet),Telangana,Hyderabad,04
17.4462847,78.47417,Begampet (IMD),Telangana,Hyderabad,04
17.4458747,78.4361232,Erragadda-PZ_1,Telangana,Hyderabad,04
17.4168165,78.4529226,Erramanzil_1,Telangana,Hyderabad,04
17.3345205,78.4682145,Falaknama_1,Telangana,Hyderabad,04
17.384583,78.4332033,Gudimalkapur1,Telangana,Hyderabad,04
17.3843209,78.4846353,Koti_2,Telangana,Hyderabad,04
17.4191608,78.5296813,Osmania University (Inhouse),Telangana,Hyderabad,04
17.3980903,78.4553342,Shanti nagar_1,Telangana,Hyderabad,04
17.4736,78.5125,Thirumalgiri,Telangana,Hyderabad,04
17.4452177,78.5012177,West Maredpally_1,Telangana,Hyderabad,04
17.4704,78.4761,Bowenpally_1,Telangana,Hyderabad,04
17.38333333,78.43333333,Gudimalkapur2,Telangana,Hyderabad,04
30.12916667,76.98333333,Berthala S,Haryana,Kurukshetra,11
30.025,76.89583333,Kaulapur D,Haryana,Kurukshetra,10
29.98333333,76.58055556,Pehowa (D),Haryana,Kurukshetra,11
30.02916667,76.725,Santokhpur D,Haryana,Kurukshetra,11
30.05416667,76.55833333,Bodhni (m),Haryana,Kurukshetra,05
30.16666667,76.86666667,Shahbad 1(d),Haryana,Kurukshetra,11
29.92,76.50138889,Thana (m),Haryana,Kurukshetra,07
29.95,76.7625,Hatira  (s),Haryana,Kurukshetra,11
29.99222222,77.09083333,Ban- Pz,Haryana,Kurukshetra,17
29.95555556,77.05222222,Baronda-Pz,Haryana,Kurukshetra,01
30.00055556,76.75361111,Dabkhera-Pz,Haryana,Kurukshetra,11
30,76.75138889,Malikpur-Singhpura-Pz,Haryana,Kurukshetra,11
29.98888889,76.75138889,Murtzapur-Pz,Haryana,Kurukshetra,11
30.235,76.82777778,Samalkhi-Pz,Haryana,Kurukshetra,06
30.00027778,76.50194444,Sirsala-Pz,Haryana,Kurukshetra,15
30.03944444,76.75555556,Bachki-Pz,Haryana,Kurukshetra,11
30.05416667,76.55833333,Bodhni (s),Haryana,Kurukshetra,05
30.025,76.89583333,Kaulapur S,Haryana,Kurukshetra,10
29.98333333,76.58055556,Pehowa 2(m),Haryana,Kurukshetra,11
29.98333333,76.58055556,Pehowa 3 (s),Haryana,Kurukshetra,11
30.00166667,77.00027778,Ram Sharan Majra-Pz,Haryana,Kurukshetra,10
29.95,76.7625,Hatira (m),Haryana,Kurukshetra,11
29.98611111,76.79416667,Jogna Khera-Pz,Haryana,Kurukshetra,10
30.12694444,76.84083333,Khanpur Jattan D-Pz.,Haryana,Kurukshetra,11
30.125,76.86083333,Khanpur Jattan M -Pz,Haryana,Kurukshetra,11
30.125,76.86277778,Khan Pur Jattan  S Pz.,Haryana,Kurukshetra,11
29.91666667,76.91666667,Umri-Pz,Haryana,Kurukshetra,01
30.07611111,76.72166667,Busthala-PZ,Haryana,Kurukshetra,11
30.00638889,76.62527778,Urnai-PZ,Haryana,Kurukshetra,11
30.06805556,76.48888889,Adhoya-Pz,Haryana,Kurukshetra,07
30.14861111,76.68611111,Ajrawer-PZ,Haryana,Kurukshetra,07
29.96027778,77.09527778,Badarpur-PZ,Haryana,Kurukshetra,17
30.01527778,77.065,Bakali-PZ,Haryana,Kurukshetra,01
29.97277778,77.05722222,Bapda-PZ,Haryana,Kurukshetra,01
29.90916667,76.73222222,Barna-PZ,Haryana,Kurukshetra,11
30.01111111,77.10694444,Barshami-PZ,Haryana,Kurukshetra,17
29.93916667,76.59222222,Batheri-PZ,Haryana,Kurukshetra,07
29.98166667,77.07444444,Budha-PZ,Haryana,Kurukshetra,01
30.02222222,76.66361111,Chanalheri-PZ,Haryana,Kurukshetra,11
30.08527778,77.06777778,Chhapra-Pz,Haryana,Kurukshetra,09
30.0425,76.85472222,Dhir Pur-PZ,Haryana,Kurukshetra,11
30.06,76.46583333,Diwana-PZ,Haryana,Kurukshetra,08
29.96361111,76.73027778,Garhi Roran-PZ,Haryana,Kurukshetra,11
29.91055556,76.70194444,Ghararsi-PZ,Haryana,Kurukshetra,07
29.95361111,77.02916667,Gobind Garh-PZ,Haryana,Kurukshetra,01
30.20111111,76.81,Gol Pura-PZ,Haryana,Kurukshetra,05
29.93638889,76.55027778,Gumthala Garhu-PZ,Haryana,Kurukshetra,07
29.88611111,76.7525,Hathira-PZ,Haryana,Kurukshetra,11
29.97388889,76.78805556,Helwa-PZ,Haryana,Kurukshetra,10
30.13194444,76.65416667,Ismailpur-PZ,Haryana,Kurukshetra,07
30.11666667,76.66944444,Ismilabad-St-Pz,Haryana,Kurukshetra,05
30.07888889,76.66861111,Jalbehra-PZ,Haryana,Kurukshetra,05
30.11666667,76.7425,Jansa-Pz,Haryana,Kurukshetra,05
30.11444444,76.74083333,Jhansa-PZ,Haryana,Kurukshetra,05
30.155,76.81833333,Kalsani-PZ,Haryana,Kurukshetra,05
30.04388889,76.49416667,Karaha Sahib-PZ,Haryana,Kurukshetra,07
29.93777778,76.85777778,Kheri Ran Nagar-PZ,Haryana,Kurukshetra,01
30.14444444,77.02055556,Lakhmari-PZ,Haryana,Kurukshetra,10
30.22055556,76.86194444,Landi-PZ,Haryana,Kurukshetra,05
30.01888889,76.9875,Lohara-Pz,Haryana,Kurukshetra,10
29.95277778,76.725,Lohar Majra-PZ,Haryana,Kurukshetra,11
30.18222222,76.72916667,Lukhi-Pz,Haryana,Kurukshetra,07
29.95583333,76.4925,Mangana-PZ,Haryana,Kurukshetra,07
30.12805556,77.03777778,Mangoli Jattan-PZ,Haryana,Kurukshetra,10
29.95444444,76.79361111,Mirzapur-PZ,Haryana,Kurukshetra,11
30.24166667,76.85277778,Mohri-Dw,Haryana,Kurukshetra,06
30.24166667,76.85277778,Mohri-Pz,Haryana,Kurukshetra,06
30.0575,76.91472222,Morthala-PZ,Haryana,Kurukshetra,10
30.07777778,76.64305556,Naisi-Pz,Haryana,Kurukshetra,05
30.18055556,76.94277778,Padlu-PZ,Haryana,Kurukshetra,11
29.95666667,76.77805556,Rao Garh-PZ,Haryana,Kurukshetra,11
30.16666667,76.9325,Rawa-PZ,Haryana,Kurukshetra,11
30.12555556,76.71277778,Rohit-PZ,Haryana,Kurukshetra,05
30.05694444,76.85777778,Sarai Sukhi-PZ,Haryana,Kurukshetra,11
29.93138889,76.66527778,Sarsa-PZ,Haryana,Kurukshetra,11
29.96611111,76.8,Shanti Nagar-PZ,Haryana,Kurukshetra,10
30.10277778,76.98888889,Sunarain Dhanani-PZ,Haryana,Kurukshetra,10
29.96,76.86416667,Sunder Pur-PZ,Haryana,Kurukshetra,01
30.01027778,76.67888889,Surmi-PZ,Haryana,Kurukshetra,11
30.16166667,76.76666667,Tangore-Pz,Haryana,Kurukshetra,05
30.04,76.95722222,Tatka-PZ,Haryana,Kurukshetra,10
30.06527778,76.55166667,Teokar-PZ,Haryana,Kurukshetra,05
30.12333333,76.88222222,Teora-PZ,Haryana,Kurukshetra,11
30.16638889,76.70972222,Thol-PZ,Haryana,Kurukshetra,07
30.13305556,76.84194444,Tigri-PZ,Haryana,Kurukshetra,11
30.14166667,76.95138889,Yara-PZ,Haryana,Kurukshetra,11
29.94611111,76.90611111,Umri-PzCGWB,Haryana,Kurukshetra,01
29.90333333,76.7875,Kirmach-St-Pz,Haryana,Kurukshetra,11
30.01666667,76.49166667,Ishaq,Haryana,Kurukshetra,15
29.975,76.95833333,Mathana,Haryana,Kurukshetra,10
30.81111111,76.91944444,Dharampur,Haryana,Panchkula,01
30.49166667,77.025,Kakar Majra,Haryana,Panchkula,06
30.825,76.87777778,Khera,Haryana,Panchkula,03
30.9,76.79583333,Mehranwali,Haryana,Panchkula,03
30.64166667,77.00833333,Parwala,Haryana,Panchkula,06
30.46944444,76.93888889,Patwi,Haryana,Panchkula,06
30.5875,77.02222222,Raipurrani,Haryana,Panchkula,06
30.69666667,76.87333333,Devnagar(Panchkula),Haryana,Panchkula,02
30.68333333,76.88333333,Fatehpur-2 (s),Haryana,Panchkula,02
30.58333333,77.01666667,Raipur Rani-Pz,Haryana,Panchkula,06
30.77888889,76.93805556,Bahoriyan-Dw,Haryana,Panchkula,01
30.73222222,76.975,Dhakwala-Dw,Haryana,Panchkula,01
30.505,76.98611111,Golpura-DW,Haryana,Panchkula,06
30.47972222,76.95194444,Jaspur-Pz,Haryana,Panchkula,06
30.68333333,76.9,Nadha-DW,Haryana,Panchkula,02
30.73916667,76.99861111,Thapli-Dw,Haryana,Panchkula,01
30.53277778,77.03111111,Hangola,Haryana,Panchkula,06
30.48333333,76.95,Jaspur-DW,Haryana,Panchkula,06
30.75722222,76.99305556,Nandpur-Dw,Haryana,Panchkula,01
30.89083333,76.83222222,Kona,Haryana,Panchkula,03
30.56555556,76.9975,Kheri-DW,Haryana,Panchkula,06
30.55277778,76.94972222,Batour,Haryana,Panchkula,06
30.66472222,76.85166667,Kundi-DW,Haryana,Panchkula,02
30.89138889,76.82888889,Maranwala,Haryana,Panchkula,03
30.52861111,76.97666667,Mauli-DW,Haryana,Panchkula,06
30.65,76.88333333,Ramgarh-DW,Haryana,Panchkula,02
30.85,76.86666667,Ram Nagar-DW,Haryana,Panchkula,03
30.60305556,77.04777778,Rampur-DW,Haryana,Panchkula,06
30.58333333,77.06666667,Rehna-DW,Haryana,Panchkula,06
30.54416667,77.04694444,Shahjahan Pur-DW,Haryana,Panchkula,06
30.61666667,76.96666667,Toka-DW,Haryana,Panchkula,06
30.79472222,76.91638889,Abdullapur,Haryana,Panchkula,01
30.74972222,76.90305556,Chandi Mandir-DW,Haryana,Panchkula,02
30.55416667,76.91666667,Barwala,Haryana,Panchkula,03
28.04583333,77.46666667,Achheja,Haryana,Palwal,34
28.22083333,77.30833333,Baghaula,Haryana,Palwal,09
28.0625,77.34166667,Bamnikhera,Haryana,Palwal,10
28.07777778,77.43888889,Barauli1,Haryana,Palwal,10
28.0375,77.375,Dighaut,Haryana,Palwal,10
27.88333333,77.35,Hodel,Haryana,Palwal,14
28.20416667,77.23888889,Jaindapur,Haryana,Palwal,09
27.97083333,77.41666667,Khambi,Haryana,Palwal,34
27.95833333,77.22916667,Kot,Haryana,Palwal,10
28.03472222,77.1875,Lakhnaka,Haryana,Palwal,12
28.1375,77.40416667,Lalwa,Haryana,Palwal,10
28.15,77.325,Palwal,Haryana,Palwal,10
28.00833333,77.34166667,Tumsara,Haryana,Palwal,10
28.19444444,77.37777778,Badraun,Haryana,Palwal,09
28.04583333,77.24166667,Hathin,Haryana,Palwal,10
27.96666667,77.49027778,Hassanpur,Haryana,Palwal,34
27.88333333,77.35,Hodel1,Haryana,Palwal,14
28.15,77.325,Palwal1,Haryana,Palwal,10
28.22777778,77.41666667,Jawan- Pz,Haryana,Palwal,09
28.0225,77.17666667,Pehladpur-Pz,Haryana,Palwal,12
28.15555556,77.42638889,Pelak-Pz,Haryana,Palwal,32
28.14916667,77.18527778,Mandkola,Haryana,Palwal,12
28.04444444,77.47222222,Pirgarhi- Pz,Haryana,Palwal,34
27.93416667,77.5,Banchari-DW,Haryana,Palwal,34
28.05,77.28888889,Bazida Pahar-DW,Haryana,Palwal,10
28.01805556,77.21111111,Bibipur-DW,Haryana,Palwal,12
27.87777778,77.28333333,Nangal Jat-DW,Haryana,Palwal,10
28.07222222,77.325,Phulwari-DW,Haryana,Palwal,10
27.98611111,77.33611111,Sarai-DW,Haryana,Palwal,10
27.91666667,77.45,Bhiduki-DW,Haryana,Palwal,34
28.00972222,77.44583333,Gulawad-DW,Haryana,Palwal,34
20.40277778,72.84444444,Ambawadi,Gujarat,Daman,28
20.44305556,72.85194444,Dalwada,Gujarat,Daman,28
20.42416667,72.85027778,Daman,Gujarat,Daman,28
20.37777778,72.82694444,Jempore,Gujarat,Daman,47
20.425,72.84583333,Khariwad daman,Gujarat,Daman,28
20.43527778,72.83111111,Morwad,Gujarat,Daman,28
20.40805556,72.85972222,Warkund,Gujarat,Daman,28
20.41111111,72.88611111,Dabhel,Gujarat,Daman,28
20.45833333,72.87083333,Bhimpor k.falia,Gujarat,Daman,46
20.70833333,70.96888889,Chakarteeth_Pz,Gujarat,Diu,31
20.72166667,70.93305556,Jalawadi,Gujarat,Diu,31
20.70833333,70.87638889,Gomtimata,Gujarat,Diu,
32.85972222,74.75138889,Akhnoor,Jammu _ Kashmir,Jammu,39
32.80555556,74.5625,Bakore,Jammu _ Kashmir,Jammu,39
32.49444444,75.0625,Bengular,Jammu _ Kashmir,Jammu,47
32.61888889,74.67722222,Bera,Jammu _ Kashmir,Jammu,39
32.85972222,74.575,Bhagwanchak,Jammu _ Kashmir,Jammu,39
32.61277778,74.86388889,Bishnah,Jammu _ Kashmir,Jammu,48
32.62638889,74.91944444,Channi,Jammu _ Kashmir,Jammu,48
32.58583333,75.105,Daboh,Jammu _ Kashmir,Jammu,47
32.85555556,74.65833333,Devipura,Jammu _ Kashmir,Jammu,39
32.80694444,74.54111111,Dhanpur,Jammu _ Kashmir,Jammu,39
32.47027778,74.95833333,Didyal,Jammu _ Kashmir,Jammu,47
32.55,74.95833333,Ghobrahmna,Jammu _ Kashmir,Jammu,48
32.55,75.00972222,Gudwal,Jammu _ Kashmir,Jammu,47
32.88333333,74.70555556,Gura,Jammu _ Kashmir,Jammu,39
32.73805556,74.81416667,Hazuribag,Jammu _ Kashmir,Jammu,39
32.825,74.7375,Jhiri,Jammu _ Kashmir,Jammu,39
32.81305556,75.08583333,Jindrah,Jammu _ Kashmir,Jammu,38
32.83333333,74.575,Jourian,Jammu _ Kashmir,Jammu,39
32.5875,74.975,Kainthpur,Jammu _ Kashmir,Jammu,48
32.65722222,74.89388889,Kaluchak,Jammu _ Kashmir,Jammu,39
32.82083333,74.71666667,Kana Chak,Jammu _ Kashmir,Jammu,39
32.86555556,74.99527778,Katcha-Pind,Jammu _ Kashmir,Jammu,38
32.82916667,74.51666667,Khour,Jammu _ Kashmir,Jammu,44
32.83722222,75.03333333,Kunihala,Jammu _ Kashmir,Jammu,38
32.83194444,74.51388889,Lam,Jammu _ Kashmir,Jammu,44
32.55527778,74.9175,Majua Laxmi,Jammu _ Kashmir,Jammu,48
32.85,74.76666667,Marjholi,Jammu _ Kashmir,Jammu,39
32.64583333,74.79472222,Miran Sahib,Jammu _ Kashmir,Jammu,39
32.75277778,74.8,Muthi,Jammu _ Kashmir,Jammu,39
32.76111111,74.77777778,Nagbani,Jammu _ Kashmir,Jammu,39
32.79722222,74.915,Nagrota (Sittle),Jammu _ Kashmir,Jammu,38
32.51805556,74.88861111,Nandpur,Jammu _ Kashmir,Jammu,48
32.50833333,74.70555556,Nikowal,Jammu _ Kashmir,Jammu,48
32.6125,75.14777778,Nud,Jammu _ Kashmir,Jammu,47
32.85,74.45416667,Palanwala,Jammu _ Kashmir,Jammu,44
32.79444444,74.52361111,Pangli Colony,Jammu _ Kashmir,Jammu,39
32.84166667,74.77083333,Pata Khu,Jammu _ Kashmir,Jammu,39
32.60833333,74.94583333,Patli,Jammu _ Kashmir,Jammu,48
32.80277778,74.77777778,Purkhoo,Jammu _ Kashmir,Jammu,39
32.51138889,75.11666667,Raiyan,Jammu _ Kashmir,Jammu,14
32.56138889,74.87611111,Rehal,Jammu _ Kashmir,Jammu,48
32.56055556,74.82194444,Salehar,Jammu _ Kashmir,Jammu,48
32.5575,75.11916667,Samba,Jammu _ Kashmir,Jammu,47
32.68888889,74.84583333,Satwari,Jammu _ Kashmir,Jammu,39
32.77388889,74.50833333,Senth,Jammu _ Kashmir,Jammu,44
32.57777778,74.66944444,Suchetgarh,Jammu _ Kashmir,Jammu,48
32.87916667,74.95833333,Sugetar,Jammu _ Kashmir,Jammu,38
32.55833333,75.06666667,Supwal,Jammu _ Kashmir,Jammu,47
32.57083333,75.00555556,Swankha,Jammu _ Kashmir,Jammu,48
32.975,74.7,Tanda Sheeda,Jammu _ Kashmir,Jammu,39
32.87388889,74.61444444,Taryai,Jammu _ Kashmir,Jammu,39
32.63333333,74.88333333,Upralakanhal,Jammu _ Kashmir,Jammu,48
32.80555556,74.89583333,Jagati,Jammu _ Kashmir,Jammu,38
32.69305556,74.93444444,Chatta,Jammu _ Kashmir,Jammu,39
32.68611111,74.93055556,Greater Kailash,Jammu _ Kashmir,Jammu,39
32.7025,74.88861111,Trikuta Nagar,Jammu _ Kashmir,Jammu,39
32.6225,74.71583333,Agre Chak,Jammu _ Kashmir,Jammu,39
32.5175,74.83666667,Allah,Jammu _ Kashmir,Jammu,48
32.52027778,74.79861111,Arnia II,Jammu _ Kashmir,Jammu,48
32.90833333,74.43611111,Baradow,Jammu _ Kashmir,Jammu,44
32.63722222,74.90138889,Bassi Kalan,Jammu _ Kashmir,Jammu,48
32.84833333,74.74638889,Batera,Jammu _ Kashmir,Jammu,39
32.61472222,74.66805556,Bega,Jammu _ Kashmir,Jammu,39
32.65555556,74.95166667,Birpur,Jammu _ Kashmir,Jammu,39
32.86,74.76305556,Dharam Khu,Jammu _ Kashmir,Jammu,39
32.76083333,74.71055556,Gajansoo,Jammu _ Kashmir,Jammu,39
32.79055556,74.79194444,Garhi (Jammu),Jammu _ Kashmir,Jammu,39
32.72277778,74.73944444,Gho Manhasan,Jammu _ Kashmir,Jammu,39
32.79527778,74.48222222,Gigrial,Jammu _ Kashmir,Jammu,44
32.76666667,74.54944444,Hamirpur Kohna,Jammu _ Kashmir,Jammu,39
32.77638889,74.52555556,Hamirpur Sidhar,Jammu _ Kashmir,Jammu,39
32.79083333,74.72583333,Jaswan,Jammu _ Kashmir,Jammu,39
32.93388889,74.44194444,Jogwan,Jammu _ Kashmir,Jammu,44
32.86555556,74.47166667,Kachrial,Jammu _ Kashmir,Jammu,44
32.91111111,74.47472222,Kalah,Jammu _ Kashmir,Jammu,44
32.83972222,74.84583333,Kangar,Jammu _ Kashmir,Jammu,39
32.70611111,74.82166667,Karnaile Chak,Jammu _ Kashmir,Jammu,39
32.59083333,74.90638889,Khairi (Bishnah),Jammu _ Kashmir,Jammu,48
32.8075,74.8575,Khairi (Raipur),Jammu _ Kashmir,Jammu,39
32.57722222,74.88166667,Kothey Saini,Jammu _ Kashmir,Jammu,48
32.61555556,74.83416667,Kotli Charkan,Jammu _ Kashmir,Jammu,48
32.66444444,74.77388889,Lalyal,Jammu _ Kashmir,Jammu,39
32.585,74.83694444,Laswara,Jammu _ Kashmir,Jammu,48
32.9025,74.68833333,Leherian,Jammu _ Kashmir,Jammu,39
32.7625,74.79194444,Lower Barnai,Jammu _ Kashmir,Jammu,39
32.51027778,74.9425,Mahal Kalandrian,Jammu _ Kashmir,Jammu,48
32.69333333,74.71694444,Makwal,Jammu _ Kashmir,Jammu,39
32.77638889,74.74555556,Marh,Jammu _ Kashmir,Jammu,39
32.83694444,74.44861111,Palatan,Jammu _ Kashmir,Jammu,44
32.62694444,74.88861111,Palli,Jammu _ Kashmir,Jammu,48
32.76222222,74.77583333,Patyale Chak,Jammu _ Kashmir,Jammu,39
32.75055556,74.89638889,Rangoora,Jammu _ Kashmir,Jammu,38
32.79222222,74.59277778,Sajwal,Jammu _ Kashmir,Jammu,39
32.56027778,74.81805556,Salehar II,Jammu _ Kashmir,Jammu,48
32.70972222,74.71416667,Sandhwan,Jammu _ Kashmir,Jammu,39
32.5075,74.72472222,Sei Khurd,Jammu _ Kashmir,Jammu,48
32.82805556,74.74166667,Shama Chak,Jammu _ Kashmir,Jammu,39
32.75972222,74.89472222,Sidhra,Jammu _ Kashmir,Jammu,38
32.875,74.7525,Sobka,Jammu _ Kashmir,Jammu,39
32.69722222,74.74305556,Sohanjana,Jammu _ Kashmir,Jammu,39
32.5675,74.67555556,Suchetgarh II,Jammu _ Kashmir,Jammu,48
32.95666667,74.67194444,Sumah,Jammu _ Kashmir,Jammu,39
32.52583333,74.82027778,Poal II,Jammu _ Kashmir,Jammu,48
32.55166667,74.94888889,Gho Rakawalan,Jammu _ Kashmir,Jammu,48
32.8525,75.01861111,Badsoo,Jammu _ Kashmir,Jammu,38
32.61305556,75.14027778,Dhora,Jammu _ Kashmir,Jammu,47
32.60916667,75.06527778,Kamila,Jammu _ Kashmir,Jammu,47
32.79888889,75.10833333,Kot Kaswal,Jammu _ Kashmir,Jammu,38
32.64777778,75.06361111,Uttarbani,Jammu _ Kashmir,Jammu,47
32.83444444,75.04166667,Kah Pahuta,Jammu _ Kashmir,Jammu,38
32.64972222,74.98666667,Maheen Charkan,Jammu _ Kashmir,Jammu,48
32.65666667,75.07388889,Mothlian Kalan,Jammu _ Kashmir,Jammu,47
32.62388889,75.065,Nagrota Uttarbani,Jammu _ Kashmir,Jammu,47
32.59305556,75.15555556,Painthi,Jammu _ Kashmir,Jammu,47
32.74722222,75.07722222,Sagoon,Jammu _ Kashmir,Jammu,38
32.76722222,75.04305556,Surinsar,Jammu _ Kashmir,Jammu,38
32.82916667,74.93833333,Upper Ban,Jammu _ Kashmir,Jammu,38
32.78861111,74.89361111,Khanpur-Nagrota,Jammu _ Kashmir,Jammu,38
30.70833333,76.79444444,BURAIL,Chandigarh,Chandigarh,13
30.7125,76.78527778,Csio-combined,Chandigarh,Chandigarh,13
30.70833333,76.73333333,MaloyaPZM,Chandigarh,Chandigarh,13
30.69166667,76.78611111,NEW INDUST AREA,Chandigarh,Chandigarh,13
30.75972222,76.80416667,"Sec-27, AR Well",Chandigarh,Chandigarh,13
30.75555556,76.79444444,SECT 10C,Chandigarh,Chandigarh,13
30.75,76.78611111,SECT 10C (D),Chandigarh,Chandigarh,13
30.725,76.77361111,SECT 21D (D),Chandigarh,Chandigarh,13
30.70555556,76.78055556,SECT 31D (D),Chandigarh,Chandigarh,13
30.7375,76.74305556,SECT 37D (D),Chandigarh,Chandigarh,13
30.7375,76.72777778,SECT 39D (D),Chandigarh,Chandigarh,12
30.70972222,76.80138889,SECT 44D (D),Chandigarh,Chandigarh,13
30.70333333,76.76944444,Sector-46 (shallow),Chandigarh,Chandigarh,13
30.75972222,76.80416667,Bhujal Bhawan Pz- Deep,Chandigarh,Chandigarh,13
30.7125,76.78527778,Csio-deep,Chandigarh,Chandigarh,13
30.7125,76.78527778,CSIO-S,Chandigarh,Chandigarh,13
30.75,76.78611111,SECT 10C (S),Chandigarh,Chandigarh,13
30.75,76.78611111,SECT 12 (D),Chandigarh,Chandigarh,13
30.725,76.77361111,SECT 21D (S),Chandigarh,Chandigarh,13
30.70555556,76.78055556,SECT 31D (S),Chandigarh,Chandigarh,13
30.7375,76.74305556,SECT 37D (S),Chandigarh,Chandigarh,13
30.7375,76.72777778,SECT 39D (S),Chandigarh,Chandigarh,12
30.70972222,76.80138889,SECT 44D (S),Chandigarh,Chandigarh,13
30.70333333,76.76944444,Sector-46(deep),Chandigarh,Chandigarh,13
30.75416667,76.71944444,Maloya Pz-Deep,Chandigarh,Chandigarh,12
30.70833333,76.73361111,Maloya,Chandigarh,Chandigarh,13
30.70333333,76.76944444,Sector-46(vs),Chandigarh,Chandigarh,13
8.50555556,77.18333333,Amboori,Kerala,Thiruvananthapuram,34
8.58055556,77.08611111,Ariyanadu Pz,Kerala,Thiruvananthapuram,33
8.56944444,77.01944444,Aruvikara,Kerala,Thiruvananthapuram,33
8.69722222,76.81666667,Attingal,Kerala,Thiruvananthapuram,30
8.35833333,77.10944444,Chengal Pz,Kerala,Thiruvananthapuram,34
8.65833333,76.78888889,Chirayinkil,Kerala,Thiruvananthapuram,30
8.76111111,76.69722222,Edava,Kerala,Thiruvananthapuram,32
8.70833333,77.13083333,Kallar,Kerala,Thiruvananthapuram,29
8.53055556,77.125,Kallikkad,Kerala,Thiruvananthapuram,34
8.56527778,76.89027778,Kariyavattom Pz,Kerala,Thiruvananthapuram,30
8.50694444,77.08333333,Kattakkada,Kerala,Thiruvananthapuram,34
8.57083333,76.87083333,Kazhakkuttom,Kerala,Thiruvananthapuram,30
8.77638889,76.88055556,Kilimannor,Kerala,Thiruvananthapuram,30
8.32638889,77.10972222,Kulathoor pz,Kerala,Thiruvananthapuram,34
8.825,76.83472222,Madavur,Kerala,Thiruvananthapuram,32
8.73055556,76.79166667,Manambur Pz,Kerala,Thiruvananthapuram,30
8.64111111,76.83388889,Mangalapuram Pz,Kerala,Thiruvananthapuram,30
8.56944444,76.95,Mannanthala,Kerala,Thiruvananthapuram,33
8.55555556,76.94305556,Mannanthala Pz,Kerala,Thiruvananthapuram,33
8.675,77.12777778,Maruthamala,Kerala,Thiruvananthapuram,29
8.60972222,77.00972222,Nedumangad,Kerala,Thiruvananthapuram,33
8.41111111,77.08055556,Neyyattinkara,Kerala,Thiruvananthapuram,34
8.72083333,77.03194444,Palode,Kerala,Thiruvananthapuram,29
8.67222222,76.9875,Panavoor,Kerala,Thiruvananthapuram,29
8.76527778,76.96944444,Pangode,Kerala,Thiruvananthapuram,29
8.34027778,77.15694444,Parassala,Kerala,Thiruvananthapuram,34
8.51944444,76.94027778,Pattom Pz,Kerala,Thiruvananthapuram,33
8.72777778,77.04722222,Peringamala Pz,Kerala,Thiruvananthapuram,29
8.62583333,76.80611111,Perumathura,Kerala,Thiruvananthapuram,30
8.62916667,76.8125,Perumkuzhi,Kerala,Thiruvananthapuram,30
8.43944444,77.11166667,Perunkadavila,Kerala,Thiruvananthapuram,34
8.65555556,76.92222222,Pirappankod,Kerala,Thiruvananthapuram,30
8.74583333,77.12555556,Ponmudi(R1),Kerala,Thiruvananthapuram,29
8.42916667,76.98333333,Poonkulam,Kerala,Thiruvananthapuram,33
8.45,76.94166667,Poonthura,Kerala,Thiruvananthapuram,33
8.34444444,77.05222222,Pulluvila,Kerala,Thiruvananthapuram,34
8.31666667,77.06666667,Puvar School,Kerala,Thiruvananthapuram,34
8.55,76.91666667,Sreekariyam Pz,Kerala,Thiruvananthapuram,33
8.50277778,76.96388889,Trivandrum,Kerala,Thiruvananthapuram,33
8.37916667,77.12472222,Udayankulangara Pz,Kerala,Thiruvananthapuram,34
8.71944444,76.9,Vamanapuram,Kerala,Thiruvananthapuram,30
8.73111111,76.71666667,Varkala,Kerala,Thiruvananthapuram,30
8.55,77.05277778,Vellanad,Kerala,Thiruvananthapuram,33
8.44111111,77.19722222,Vellarada(R1),Kerala,Thiruvananthapuram,34
8.66944444,77.08472222,Vithura,Kerala,Thiruvananthapuram,29
8.65833333,76.84166667,Korani,Kerala,Thiruvananthapuram,30
8.44,77.1175,Perumkadavila Pz,Kerala,Thiruvananthapuram,34
8.31666667,77.07361111,Poovar-ii,Kerala,Thiruvananthapuram,34
8.73222222,76.71666667,Varkala  Deep,Kerala,Thiruvananthapuram,30
8.68472222,76.86944444,Vazhakkad Pz,Kerala,Thiruvananthapuram,30
8.65555556,76.86666667,Vengod Pz,Kerala,Thiruvananthapuram,30
8.52361111,77.04166667,Vilappilsala Pz,Kerala,Thiruvananthapuram,33
8.38611111,77.075,Athazhamangalam,Kerala,Thiruvananthapuram,34
8.36944444,77.075,Chittagode,Kerala,Thiruvananthapuram,34
8.67916667,76.77083333,Kadakkavur,Kerala,Thiruvananthapuram,30
8.35277778,77.05833333,Kanjiramkulam,Kerala,Thiruvananthapuram,34
8.60833333,76.82777778,Murukumpuzha,Kerala,Thiruvananthapuram,30
8.3,77.095,Pozhiyoor,Kerala,Thiruvananthapuram,34
8.38611111,77.075,Sasthanthala,Kerala,Thiruvananthapuram,34
8.61944444,76.84166667,Thonakkal,Kerala,Thiruvananthapuram,30
8.73222222,76.71666667,Varkala(shallow),Kerala,Thiruvananthapuram,30
8.36944444,77.075,Venpakal,Kerala,Thiruvananthapuram,34
8.61944444,76.825,Veyloor,Kerala,Thiruvananthapuram,30
8.58,77.08611111,Ariyanadu,Kerala,Thiruvananthapuram,33
8.76555556,76.98555556,Bharathanoor,Kerala,Thiruvananthapuram,29
8.6825,76.87555556,Chembur,Kerala,Thiruvananthapuram,30
8.77611111,76.68388889,Kappil,Kerala,Thiruvananthapuram,32
8.56416667,76.98555556,Karakulam,Kerala,Thiruvananthapuram,33
8.56416667,76.895,Kariavattom,Kerala,Thiruvananthapuram,30
8.31944444,77.10833333,Kulathur,Kerala,Thiruvananthapuram,34
8.79555556,76.80027778,Melvettoor,Kerala,Thiruvananthapuram,32
8.69944444,77.0275,Nanniyode,Kerala,Thiruvananthapuram,29
8.79555556,76.80027778,Navaikulam,Kerala,Thiruvananthapuram,32
8.77416667,76.73888889,Palayamkunnu,Kerala,Thiruvananthapuram,32
8.62027778,77.085,Parandod,Kerala,Thiruvananthapuram,33
8.74944444,77.04972222,Peringamala,Kerala,Thiruvananthapuram,29
8.70583333,76.78527778,Perumgulam,Kerala,Thiruvananthapuram,30
8.61805556,76.95694444,Tekkada,Kerala,Thiruvananthapuram,33
8.53388889,76.87972222,Thumba,Kerala,Thiruvananthapuram,30
8.37,77.12,Udyankulangara,Kerala,Thiruvananthapuram,34
8.68777778,76.8625,Valakkad,Kerala,Thiruvananthapuram,30
8.59166667,76.95305556,Vattapara,Kerala,Thiruvananthapuram,33
8.37527778,77.10777778,Vattavila,Kerala,Thiruvananthapuram,34
8.50583333,77.08777778,Vilapilshala,Kerala,Thiruvananthapuram,34
8.50277778,76.90138889,Kochuveli,Kerala,Thiruvananthapuram,33
8.61944444,76.93888889,Perumgur,Kerala,Thiruvananthapuram,30
8.69638889,77.10805556,Anappara Valayanki,Kerala,Thiruvananthapuram,29
8.41472222,77.06138889,Aralumoodu,Kerala,Thiruvananthapuram,34
8.475,77.15638889,Ayyankode,Kerala,Thiruvananthapuram,34
8.64833333,76.79333333,Azhoor,Kerala,Thiruvananthapuram,30
8.42305556,77.04583333,Balaramapuram(R1),Kerala,Thiruvananthapuram,34
8.39638889,77.00222222,Cheeranikara,Kerala,Thiruvananthapuram,34
8.72361111,76.75805556,Cherunniyur,Kerala,Thiruvananthapuram,30
8.64305556,77.09444444,Ithye,Kerala,Thiruvananthapuram,33
8.48305556,77.07472222,Kandala,Kerala,Thiruvananthapuram,33
8.64111111,76.83388889,Mangalapuram,Kerala,Thiruvananthapuram,30
8.63805556,77.10277778,Meenangal,Kerala,Thiruvananthapuram,33
8.48277778,77.00972222,Mulloor,Kerala,Thiruvananthapuram,33
8.44694444,76.99416667,Ookod,Kerala,Thiruvananthapuram,33
8.78194444,76.84833333,Ponganadu,Kerala,Thiruvananthapuram,30
8.53527778,77.08666667,Poovachal,Kerala,Thiruvananthapuram,34
8.59055556,77.05777778,Uzhamalakkal,Kerala,Thiruvananthapuram,33
8.38305556,76.99111111,Vizhinjam,Kerala,Thiruvananthapuram,34
8.74944444,77.04972222,Arukannukuzhi,Kerala,Thiruvananthapuram,29
8.74944444,77.04972222,Changa,Kerala,Thiruvananthapuram,29
8.38888889,77.10361111,Chaykottukonam,Kerala,Thiruvananthapuram,34
8.65916667,77.08,Chennampara,Kerala,Thiruvananthapuram,29
8.61083333,76.99777778,Chullimanoor,Kerala,Thiruvananthapuram,33
8.74944444,77.04972222,Karinga,Kerala,Thiruvananthapuram,29
8.30055556,77.09166667,Malayadi,Kerala,Thiruvananthapuram,34
8.61083333,76.99777778,Ottashekharamangalam,Kerala,Thiruvananthapuram,33
8.64416667,76.81055556,Sasthavattom,Kerala,Thiruvananthapuram,30
8.57111111,77.02361111,Shankaramugham,Kerala,Thiruvananthapuram,33
8.61083333,76.99777778,Tholicode,Kerala,Thiruvananthapuram,33
8.68388889,76.76472222,Vakkom,Kerala,Thiruvananthapuram,30
8.50361111,77.16027778,Vazhichal,Kerala,Thiruvananthapuram,34
8.61083333,76.99777778,Veeranakavu,Kerala,Thiruvananthapuram,33
8.65861111,76.92,Venjaramoodu,Kerala,Thiruvananthapuram,30
8.80805556,76.85833333,Parandakuzhi,Kerala,Thiruvananthapuram,30
8.36166667,77.05194444,Kanjiramkulam Church,Kerala,Thiruvananthapuram,34
8.33194444,77.06083333,Tirupuram,Kerala,Thiruvananthapuram,34
8.39611111,77.00611111,Venganoor,Kerala,Thiruvananthapuram,34
8.65611111,76.86694444,Vengod,Kerala,Thiruvananthapuram,30
8.31944444,77.05833333,Nagapuram,Kerala,Thiruvananthapuram,
8.61111111,76.80694444,Pudukurichi,Kerala,Thiruvananthapuram,
8.67222222,76.75694444,Anjengo,Kerala,Thiruvananthapuram,
10.01527778,76.42777778,Aikaranad,Kerala,Ernakulam,24
10.11166667,76.35611111,Alwaye,Kerala,Ernakulam,08
10.19027778,76.3875,Angamali1,Kerala,Ernakulam,25
9.92777778,76.58361111,Arakuzha,Kerala,Ernakulam,22
10.24861111,76.41388889,Attara,Kerala,Ernakulam,25
10.15416667,76.28194444,Chalakka,Kerala,Ernakulam,25
9.80694444,76.28472222,Chellanum,Kerala,Ernakulam,24
10.15277778,76.33944444,Chengamanad,Kerala,Ernakulam,25
10.12583333,76.38888889,Chowara,Kerala,Ernakulam,08
9.86944444,76.43611111, Edakkattuvoyal PZ,Kerala,Ernakulam,
9.87361111,76.44166667,Edakkatuvayal,Kerala,Ernakulam,24
10.02222222,76.3075,Edapally,Kerala,Ernakulam,24
10.09166667,76.20833333,Edavanakad,Kerala,Ernakulam,25
10.08555556,76.29722222,Elur north1,Kerala,Ernakulam,25
9.95,76.24638889,Fort cochin,Kerala,Ernakulam,24
9.95,76.35,Irumbanam1,Kerala,Ernakulam,24
9.97916667,76.30805556,Kadavanthara,Kerala,Ernakulam,24
9.98333333,76.7,Kalur,Kerala,Ernakulam,21
9.85416667,76.40416667,Kanjiramattom,Kerala,Ernakulam,24
10.12777778,76.42638889,Kanjur,Kerala,Ernakulam,08
9.87083333,76.56805556,Kizhakombu,Kerala,Ernakulam,23
10.19388889,76.34861111,Kodussery,Kerala,Ernakulam,25
10.15,76.48277778,Koovappady,Kerala,Ernakulam,08
10.13055556,76.59861111,Kottapadi,Kerala,Ernakulam,08
10.11527778,76.525,Kuruppampady,Kerala,Ernakulam,08
10.18333333,76.53333333,Malayattur,Kerala,Ernakulam,08
10.18416667,76.50666667,Malayattur1,Kerala,Ernakulam,08
10.02222222,76.225,Malipuram,Kerala,Ernakulam,25
10.2125,76.455,Manjapara,Kerala,Ernakulam,08
10.05,76.51666667,Mannur,Kerala,Ernakulam,23
9.89166667,76.39166667,Mulanthuruthi,Kerala,Ernakulam,24
10.09527778,76.43333333,Mullankunnu,Kerala,Ernakulam,08
9.98472222,76.57916667,Muvattupuzha,Kerala,Ernakulam,23
9.85694444,76.52777778,Namakuzhi,Kerala,Ernakulam,23
10.05555556,76.77361111,Neriyamangalam,Kerala,Ernakulam,07
10.18333333,76.21666667,North parur,Kerala,Ernakulam,25
10.05416667,76.68333333,Oonnukal,Kerala,Ernakulam,21
9.91666667,76.57083333,Palakuzha north,Kerala,Ernakulam,23
9.94166667,76.50833333,Perumbadavam,Kerala,Ernakulam,23
10.00555556,76.70833333,Pothanikad,Kerala,Ernakulam,21
10.105,76.67138889,Punnakad,Kerala,Ernakulam,21
9.91944444,76.375,Puthotta,Kerala,Ernakulam,24
9.93888889,76.47777778,Ramamangalam,Kerala,Ernakulam,23
9.88861111,76.555,Thirumaradi,Kerala,Ernakulam,23
10.04861111,76.34583333,Trikkakara,Kerala,Ernakulam,24
9.94305556,76.34305556,Tripunithura,Kerala,Ernakulam,24
10.06666667,76.45416667,Valayanchirangara,Kerala,Ernakulam,24
10.12027778,76.45611111,Vallom1,Kerala,Ernakulam,08
10.07722222,76.25555556,Varapuzha,Kerala,Ernakulam,25
9.97888889,76.54,Vazhagam,Kerala,Ernakulam,23
10.13055556,76.4,Vazhakkulam north,Kerala,Ernakulam,08
9.86722222,76.45527778,Veliyanad,Kerala,Ernakulam,23
10.12777778,76.3,Kottapuram1,Kerala,Ernakulam,25
9.93333333,76.325,Kundannur1,Kerala,Ernakulam,24
9.86666667,76.48333333,Piravom,Kerala,Ernakulam,23
9.93333333,76.33333333,Punithura,Kerala,Ernakulam,24
9.96666667,76.31666667,Vytilla,Kerala,Ernakulam,24
10.13333333,76.36666667,Kapparassery,Kerala,Ernakulam,25
9.91666667,76.51666667,Mamallassery,Kerala,Ernakulam,23
9.93333333,76.31666667,Maradu,Kerala,Ernakulam,24
10.18333333,76.33333333,Mullassery,Kerala,Ernakulam,25
9.91666667,76.51666667,Pambakuda,Kerala,Ernakulam,23
10.18333333,76.31666667,Parakkadavu,Kerala,Ernakulam,25
10.13333333,76.36666667,Sreekandapuram,Kerala,Ernakulam,25
10.12222222,76.19861111,Cherai,Kerala,Ernakulam,25
9.91944444,76.27472222,Cheria Kadavu,Kerala,Ernakulam,24
9.91944444,76.27472222,Kallorkad,Kerala,Ernakulam,24
9.91944444,76.27472222,Kanjavamattom,Kerala,Ernakulam,24
9.88333333,76.55,Karukutti2,Kerala,Ernakulam,23
10.08333333,76.275,Kavalangad,Kerala,Ernakulam,25
10.15277778,76.72472222,Keerampara,Kerala,Ernakulam,07
9.96944444,76.34138889,Kizhakomby,Kerala,Ernakulam,24
10.15055556,76.48277778,Koovapady,Kerala,Ernakulam,08
10.15277778,76.72472222,Kuthukuzhi,Kerala,Ernakulam,07
10.15277778,76.72472222,Mullankunnu,Kerala,Ernakulam,07
9.91944444,76.27472222,Namakuzhi,Kerala,Ernakulam,24
10.15277778,76.72472222,Nellikuzhi,Kerala,Ernakulam,07
9.91944444,76.27472222,Palluruthy,Kerala,Ernakulam,24
9.88333333,76.55,Pulluvazhi,Kerala,Ernakulam,23
10.13194444,76.66611111,Thattekad,Kerala,Ernakulam,07
9.88722222,76.55472222,Thirumaradi,Kerala,Ernakulam,23
9.98833333,76.23944444,Vypeen,Kerala,Ernakulam,25
9.91944444,76.27472222,Punnakad1,Kerala,Ernakulam,24
9.86666667,76.575,Koothattukulam1,Kerala,Ernakulam,23
9.85944444,76.47305556,Kottapuram3,Kerala,Ernakulam,23
10.15611111,76.29916667,Kunnukara,Kerala,Ernakulam,25
10.04388889,76.21777778,Njarakkal,Kerala,Ernakulam,25
10.1375,76.22583333,Paravur,Kerala,Ernakulam,25
10.10611111,76.62472222,Pindimana,Kerala,Ernakulam,21
9.98222222,76.6075,Randar,Kerala,Ernakulam,21
9.91944444,76.27472222,Pallikara-Chittanadu,Kerala,Ernakulam,24
10.06361111,76.52055556,Keezhillam,Kerala,Ernakulam,23
10.06611111,76.21277778,Nayarambalam,Kerala,Ernakulam,25
10.005,76.71,Paingottur,Kerala,Ernakulam,21
10.12111111,76.56777778,Payyal,Kerala,Ernakulam,08
10.2,76.36888889,Peechanikad,Kerala,Ernakulam,25
10.12,76.535,Thuruthi,Kerala,Ernakulam,08
10.11527778,76.32833333,Kadungallur,Kerala,Ernakulam,25
10.17222222,76.17222222,Munambam,Kerala,Ernakulam,25
10.24861111,76.47083333,Sulli,Kerala,Ernakulam,08
10.02916667,76.54916667,Thrikalathur,Kerala,Ernakulam,23
9.88583333,76.43472222,Arakunnam,Kerala,Ernakulam,24
9.95055556,76.57638889,East Marady,Kerala,Ernakulam,23
10.15222222,76.45083333,Okkal,Kerala,Ernakulam,08
9.98111111,76.46805556,Vadavucode (Kolencherry),Kerala,Ernakulam,23
9.96444444,76.61583333,Anicadu,Kerala,Ernakulam,22
9.92916667,76.59583333,Arakuzha,Kerala,Ernakulam,22
9.96722222,76.28861111,Eranakulam South,Kerala,Ernakulam,24
9.83472222,76.53805556,Ilanji,Kerala,Ernakulam,23
10.20194444,76.52666667,Illithode 1,Kerala,Ernakulam,08
10.00027778,76.74055556,Kadavoor,Kerala,Ernakulam,21
10.16805556,76.44083333,Kalady  (R1),Kerala,Ernakulam,08
10.02555556,76.60888889,Karukadam,Kerala,Ernakulam,21
10.03694444,76.40722222,Kizhakkambalam,Kerala,Ernakulam,24
10.1825,76.52,Kodanad,Kerala,Ernakulam,08
10.19916667,76.34916667,Kodussery  (R1),Kerala,Ernakulam,25
10.06722222,76.62805556,Kothamangalam (R3),Kerala,Ernakulam,21
9.86305556,76.29111111,Kumbalangi (R2),Kerala,Ernakulam,24
10.17361111,76.33083333,Kurumassery,Kerala,Ernakulam,25
9.94555556,76.38833333,Mamala,Kerala,Ernakulam,24
10.085,76.51972222,Nallimolam (R1),Kerala,Ernakulam,08
10.02361111,76.41805556,Pattimattom (R2),Kerala,Ernakulam,24
10.1175,76.48138889,Perumbavoor (R2),Kerala,Ernakulam,08
10.00833333,76.56888889,Pezhakkapallil,Kerala,Ernakulam,23
9.95027778,76.455,Poothrikka,Kerala,Ernakulam,23
10.13611111,76.40972222,Sreemoolanagaram,Kerala,Ernakulam,08
10.26055556,76.42805556,Thabore,Kerala,Ernakulam,08
10.08555556,76.33722222,Thaikkattukara,Kerala,Ernakulam,25
9.89722222,76.36944444,Udayamperoor,Kerala,Ernakulam,24
9.97972222,76.54055556,Valakam,Kerala,Ernakulam,23
9.86972222,76.45527778,Veliyanad,Kerala,Ernakulam,23
9.84972222,76.26694444,Kandakadavu,Kerala,Ernakulam,
9.91388889,76.5,Anchalpetty,Kerala,Ernakulam,23
9.975,76.48888889,Kolenchery,Kerala,Ernakulam,23
9.96666667,76.425,Puthankurisu,Kerala,Ernakulam,24
9.21666667,76.8,Angadikkal,Kerala,Pathanamthitta,12
9.36666667,77,Ankamuzhi,Kerala,Pathanamthitta,14
9.43055556,76.8125,Chetheckal,Kerala,Pathanamthitta,15
9.29861111,76.73472222,Elanthoor,Kerala,Pathanamthitta,15
9.33333333,76.78333333,Elanthur,Kerala,Pathanamthitta,15
9.08833333,76.75722222,Enathu,Kerala,Pathanamthitta,28
9.15277778,76.77222222,Ezhamkulam,Kerala,Pathanamthitta,12
9.4,76.81666667,Karikulam,Kerala,Pathanamthitta,13
9.4,76.6,Kaviyur,Kerala,Pathanamthitta,17
9.23333333,76.85,Konni,Kerala,Pathanamthitta,12
9.15333333,76.85611111,Koodal,Kerala,Pathanamthitta,27
9.4,76.73333333,Kottanadu,Kerala,Pathanamthitta,17
9.31944444,76.8125,Kumplampoika,Kerala,Pathanamthitta,14
9.43333333,76.61111111,Kunnamthanam,Kerala,Pathanamthitta,17
9.36666667,76.91805556,Laha balawadi,Kerala,Pathanamthitta,14
9.36388889,76.88888889,Laha peruman,Kerala,Pathanamthitta,14
9.45277778,76.64722222,Mallapally,Kerala,Pathanamthitta,17
9.325,76.87916667,Maniyar,Kerala,Pathanamthitta,14
9.40833333,76.55194444,Muthoor,Kerala,Pathanamthitta,17
9.2,76.91666667,Naduvathumuzhi,Kerala,Pathanamthitta,11
9.38833333,77.01333333,Nilakkal,Kerala,Pathanamthitta,13
9.2375,76.70722222,Pandalam,Kerala,Pathanamthitta,12
9.23194444,76.64638889,Pandalam-1,Kerala,Pathanamthitta,12
9.26388889,76.78888889,Pathanamthitta,Kerala,Pathanamthitta,12
9.39166667,76.96666667,Plappally,Kerala,Pathanamthitta,13
9.26111111,76.75833333,Prakkanam,Kerala,Pathanamthitta,12
9.35138889,76.54583333,Pulikeezh,Kerala,Pathanamthitta,17
9.37027778,76.78333333,Ranni i,Kerala,Pathanamthitta,15
9.36666667,76.85555556,Ranni perunad,Kerala,Pathanamthitta,14
9.40972222,76.67222222,Thayattumala,Kerala,Pathanamthitta,17
9.39444444,76.69027778,Thelliyur,Kerala,Pathanamthitta,17
9.275,76.6875,Ullannur,Kerala,Pathanamthitta,15
9.34166667,76.83611111,Vadasserikara,Kerala,Pathanamthitta,14
9.21944444,76.77444444,Vallicode,Kerala,Pathanamthitta,12
9.2,76.73333333,Thatta,Kerala,Pathanamthitta,12
9.16083333,76.71944444,Adoor (R2),Kerala,Pathanamthitta,12
9.41638889,76.73055556,Athiringal (R1),Kerala,Pathanamthitta,17
9.41638889,76.73055556,Chalapally,Kerala,Pathanamthitta,17
9.41722222,76.66944444,Cherukolpuzha (Airoor),Kerala,Pathanamthitta,17
9.41638889,76.83055556,Chethekkal,Kerala,Pathanamthitta,13
9.33722222,76.91777778,Chittar (R1),Kerala,Pathanamthitta,14
9.38194444,76.64111111,Eraviperoor,Kerala,Pathanamthitta,17
9.15138889,76.77083333,Ezhamkulam,Kerala,Pathanamthitta,12
9.42444444,76.70305556,Ezhumattoor,Kerala,Pathanamthitta,17
9.39777778,76.85277778,Kadumeenchira,Kerala,Pathanamthitta,13
9.40138889,76.85111111,Kadumeenchira Pz,Kerala,Pathanamthitta,13
9.20222222,76.88111111,Kalleli Pz,Kerala,Pathanamthitta,12
9.20833333,76.655,Koipuram Pz,Kerala,Pathanamthitta,12
9.41638889,76.83055556,Koipuram (R1),Kerala,Pathanamthitta,13
9.45083333,76.74666667,Kottangal,Kerala,Pathanamthitta,16
9.45083333,76.74666667,Kottangal Pz,Kerala,Pathanamthitta,16
9.41638889,76.83055556,Kozhenchery,Kerala,Pathanamthitta,13
9.38194444,76.65777778,Kumbanad,Kerala,Pathanamthitta,17
9.44055556,76.61277778,Kunnamthanam1,Kerala,Pathanamthitta,17
9.33333333,76.78333333,Kuttoor,Kerala,Pathanamthitta,15
9.28722222,76.82194444,Malayalapuzha,Kerala,Pathanamthitta,12
9.28611111,76.82166667,Malayalapuzha Pz,Kerala,Pathanamthitta,12
9.44277778,76.67361111,Murani,Kerala,Pathanamthitta,17
9.35361111,76.67888889,Pullad,Kerala,Pathanamthitta,15
9.38472222,76.62416667,Vallamkulam,Kerala,Pathanamthitta,17
9.43388889,76.8575,Vechoochira,Kerala,Pathanamthitta,16
9.40472222,76.66972222,Vennikulam,Kerala,Pathanamthitta,17
9.21638889,76.81388889,V Kottayam,Kerala,Pathanamthitta,12
9.38194444,76.70777778,Thadiyur,Kerala,Pathanamthitta,17
9.27,76.92833333,Thannithodu,Kerala,Pathanamthitta,14
9.11527778,76.73166667,Churakod,Kerala,Pathanamthitta,28
9.35361111,76.8025,Edakkulam,Kerala,Pathanamthitta,15
9.26305556,76.71305556,Elavumthitta,Kerala,Pathanamthitta,12
9.0925,76.68611111,Kadambanad,Kerala,Pathanamthitta,28
9.31416667,76.77444444,Kadammanitta,Kerala,Pathanamthitta,15
9.30722222,76.685,Kidanganoor,Kerala,Pathanamthitta,15
9.18472222,76.77138889,Kodumon,Kerala,Pathanamthitta,12
9.08611111,76.71722222,Mannadi,Kerala,Pathanamthitta,28
9.24388889,76.75222222,Omallur(R1),Kerala,Pathanamthitta,12
9.19083333,76.70527778,Paranthal,Kerala,Pathanamthitta,12
9.36305556,76.54416667,Podiyadi,Kerala,Pathanamthitta,17
9.22083333,76.7025,Thumpaman,Kerala,Pathanamthitta,12
9.44833333,76.69694444,Vaipur,Kerala,Pathanamthitta,17
9.21944444,76.77444444,Vallikod,Kerala,Pathanamthitta,12
9.32194444,76.73583333,Naranganam (R1),Kerala,Pathanamthitta,15
9.12333333,76.85138889,Kalanjoor,Kerala,Pathanamthitta,27
9.21583333,76.68194444,Pandalam Town,Kerala,Pathanamthitta,12
9.37861111,76.56861111,Thiruvalla,Kerala,Pathanamthitta,17
9.24277778,76.6725,Kulanada,Kerala,Pathanamthitta,12
9.33333333,76.84444444,Aranmula (R2),Kerala,Pathanamthitta,14
9.20888889,76.87277778,Aruvapulam,Kerala,Pathanamthitta,12
9.26055556,76.8775,Athumbukulam,Kerala,Pathanamthitta,14
9.22944444,76.75388889,Kaipattoor,Kerala,Pathanamthitta,12
9.12777778,76.83888889,Kudutha,Kerala,Pathanamthitta,27
9.135,76.82138889,Poothangara,Kerala,Pathanamthitta,27
9.20111111,76.84805556,Vakayar  (Valiakavu),Kerala,Pathanamthitta,12
9.22944444,76.75388889,Adoor Bypass,Kerala,Pathanamthitta,12
9.4,76.53333333,Peringara,Kerala,Pathanamthitta,17
12.64722222,75.08333333,Angadimogar,Kerala,Kasaragod,30
12.48333333,75.24722222,Bandadka,Kerala,Kasaragod,19
12.68333333,75.09777778,Bedrampalla,Kerala,Kasaragod,30
12.40027778,75.03888889,Bekal,Kerala,Kasaragod,19
12.325,75.09444444,Bella,Kerala,Kasaragod,19
12.50416667,75.09305556,Bovikkanam,Kerala,Kasaragod,30
12.375,75.09583333,Chalingal Pz,Kerala,Kasaragod,19
12.46388889,75.06388889,Chattanchal,Kerala,Kasaragod,19
12.29166667,75.19166667,Chayankod,Kerala,Kasaragod,21
12.52583333,75.04611111,Cherkala,Kerala,Kasaragod,30
12.31666667,75.35416667,Chittarikal,Kerala,Kasaragod,21
12.25222222,75.26555556,Kakkadavu,Kerala,Kasaragod,21
12.28388889,75.24027778,Karindalam,Kerala,Kasaragod,21
12.49555556,74.9875,Kasaragod,Kerala,Kasaragod,30
12.73333333,74.94444444,Koliyarpadavu,Kerala,Kasaragod,29
12.58972222,74.94861111,Kumbala,Kerala,Kasaragod,30
12.44861111,75.14,Kundamkuzhi,Kerala,Kasaragod,19
12.42083333,75.08111111,Kuniya,Kerala,Kasaragod,19
12.48027778,75.17611111,Kuttikol,Kerala,Kasaragod,18
12.50305556,75.04722222,Madhur,Kerala,Kasaragod,19
12.45138889,75.03472222,Mangad,Kerala,Kasaragod,19
12.72416667,74.89333333,Manjeswar,Kerala,Kasaragod,29
12.55611111,75.10111111,Mavinakatta,Kerala,Kasaragod,30
12.70861111,75.01972222,Muligadde,Kerala,Kasaragod,30
12.51666667,75.13055556,Muliyar,Kerala,Kasaragod,30
12.55,75.16666667,Mulleria,Kerala,Kasaragod,18
12.46388889,75.05833333,Mylatti,Kerala,Kasaragod,19
12.375,75.34166667,Nattakkal,Kerala,Kasaragod,21
12.25,75.13333333,Nileshwar,Kerala,Kasaragod,21
12.39944444,75.21111111,Odayanchal,Kerala,Kasaragod,19
12.5375,74.96527778,Pachakkad CPCRI,Kerala,Kasaragod,30
12.69166667,74.99166667,Paivalike,Kerala,Kasaragod,30
12.57222222,75.27638889,Parappa north,Kerala,Kasaragod,18
12.4575,75.09583333,Peraladkam,Kerala,Kasaragod,19
12.40277778,75.10555556,Periye Pz,Kerala,Kasaragod,19
12.35694444,75.09444444,Pullur,Kerala,Kasaragod,19
12.41111111,75.23333333,Rajapuram,Kerala,Kasaragod,19
12.575,75.00222222,Seethamgulli,Kerala,Kasaragod,30
12.41666667,75.15555556,Thaniyadi,Kerala,Kasaragod,19
12.14722222,75.16666667,Trikaripur,Kerala,Kasaragod,20
12.45833333,75.01361111,Melparamba,Kerala,Kasaragod,19
12.33361111,75.07638889,Ajannur(s2),Kerala,Kasaragod,19
12.33361111,75.07638889,Ajannur(s4),Kerala,Kasaragod,19
12.47833333,75.03805556,Kadappalam,Kerala,Kasaragod,19
12.46388889,75.05833333,Pallikkara,Kerala,Kasaragod,19
12.46388889,75.05833333,Vidyanagar,Kerala,Kasaragod,19
12.58333333,75.03638889,Bela,Kerala,Kasaragod,30
12.62111111,74.9875,Kalathur,Kerala,Kasaragod,30
12.6525,74.99,Mandecap,Kerala,Kasaragod,30
12.71305556,74.95083333,Miyapadavu,Kerala,Kasaragod,29
12.57472222,74.95083333,Mogral (R1),Kerala,Kasaragod,30
12.65555556,74.95305556,Pachambla,Kerala,Kasaragod,30
12.56194444,75.2,Padiyathadka,Kerala,Kasaragod,18
12.62333333,75.04611111,Pallam,Kerala,Kasaragod,30
12.645,75.10861111,Perla,Kerala,Kasaragod,30
12.62027778,74.96111111,Pookatta,Kerala,Kasaragod,30
12.50972222,75.08,Povval,Kerala,Kasaragod,30
12.62222222,75.00805556,Puthige,Kerala,Kasaragod,30
12.62611111,75.09555556,Ukkinadka,Kerala,Kasaragod,30
12.68,74.90722222,Uppla,Kerala,Kasaragod,29
12.51027778,75.05055556,Cherkala,Kerala,Kasaragod,19
12.55222222,75.00472222,Madhur,Kerala,Kasaragod,30
12.46666667,75.05833333,Poinachi,Kerala,Kasaragod,19
12.67861111,75.03722222,Kaniyala,Kerala,Kasaragod,30
12.67388889,75.11916667,Adkasthala,Kerala,Kasaragod,30
12.53972222,75.10944444,Arladuka,Kerala,Kasaragod,30
12.56305556,75.16527778,Bangathadka,Kerala,Kasaragod,18
12.70083333,75.01361111,Bayar,Kerala,Kasaragod,30
12.36222222,75.06111111,Chamundikunnu DW,Kerala,Kasaragod,19
12.53166667,74.96777778,Chowki,Kerala,Kasaragod,30
12.66333333,75.03166667,Dharmathadka,Kerala,Kasaragod,30
12.60722222,75.16527778,Kinningar,Kerala,Kasaragod,30
12.59222222,75.11805556,Kumbadaje,Kerala,Kasaragod,30
12.58888889,74.94638889,Kumbla (R1),Kerala,Kasaragod,30
12.45666667,75.03527778,Mangad,Kerala,Kasaragod,19
12.56305556,75.12972222,Movvar,Kerala,Kasaragod,30
12.545,75.07222222,Nellikatta,Kerala,Kasaragod,30
12.54083333,75.12666667,Sasthangode (Sastha Nagar),Kerala,Kasaragod,30
12.63638889,75.14,Sorga,Kerala,Kasaragod,30
12.74,74.94361111,Vorkady,Kerala,Kasaragod,29
12.55166667,75.24666667,Adoor,Kerala,Kasaragod,18
12.37361111,75.13666667,Ambalathara,Kerala,Kasaragod,21
12.51472222,75.0025,Anangoor,Kerala,Kasaragod,30
12.62888889,75.07666667,Banputhadka,Kerala,Kasaragod,30
12.31972222,75.28611111,Bhimanadi-II,Kerala,Kasaragod,21
12.23666667,75.22944444,Cheemeni,Kerala,Kasaragod,20
12.12416667,75.18194444,Elambachi,Kerala,Kasaragod,20
12.49611111,75.13166667,Iriyani,Kerala,Kasaragod,18
12.67472222,74.9625,Jodukallu,Kerala,Kasaragod,30
12.71611111,74.91555556,Kadambar,Kerala,Kasaragod,29
12.33055556,75.21138889,Kalichanadukkam,Kerala,Kasaragod,21
12.1925,75.16722222,Kalikadavu,Kerala,Kasaragod,20
12.32583333,75.07777778,Kanhangad Coast (R1),Kerala,Kasaragod,19
12.32583333,75.07777778,Kanhangad Town,Kerala,Kasaragod,19
12.2125,75.17083333,Kannadipara,Kerala,Kasaragod,20
12.28388889,75.24027778,Karinthalam,Kerala,Kasaragod,21
12.44472222,75.28611111,Kolichal,Kerala,Kasaragod,19
12.29305556,75.135,Koolom Road,Kerala,Kasaragod,21
12.575,75.26666667,Kottiyadi,Kerala,Kasaragod,18
12.22805556,75.15638889,Kovval,Kerala,Kasaragod,21
12.45666667,75.13972222,Kundamkuzhy,Kerala,Kasaragod,18
12.65305556,74.92166667,Mangalpady (R1),Kerala,Kasaragod,30
12.33916667,75.10805556,Mavungal,Kerala,Kasaragod,19
12.46583333,75.00833333,Melparamba,Kerala,Kasaragod,19
12.46694444,75.19,Munnad,Kerala,Kasaragod,19
12.515,75.02277778,Naimarmoola,Kerala,Kasaragod,30
12.42944444,75.0725,Periyattadukkam,Kerala,Kasaragod,19
12.40361111,75.10277778,Periye,Kerala,Kasaragod,19
12.26444444,75.15416667,Putheriyadukkam,Kerala,Kasaragod,21
12.41444444,75.05138889,Thachangad,Kerala,Kasaragod,19
12.31527778,75.10694444,Thoyammel,Kerala,Kasaragod,21
12.16083333,75.16944444,Udinur Central,Kerala,Kasaragod,20
12.60305556,75.12444444,Yethadka,Kerala,Kasaragod,30
12.55916667,74.97416667,Bedradka,Kerala,Kasaragod,30
12.49805556,75.19222222,Bethoorpara,Kerala,Kasaragod,18
12.38277778,75.10027778,Chalingal,Kerala,Kasaragod,19
12.33972222,75.08916667,Ajannur DW,Kerala,Kasaragod,19
12.48027778,75.0575,Chattanchal DW,Kerala,Kasaragod,19
12.265,75.18833333,Kayyur,Kerala,Kasaragod,21
12.54944444,74.96027778,Mogral Puthur,Kerala,Kasaragod,30
12.52555556,74.99555556,Ramdas Nagar,Kerala,Kasaragod,30
12.56527778,75.18333333,Adhuru (R1),Kerala,Kasaragod,18
12.71027778,74.88638889,Manjeshwar,Kerala,Kasaragod,
12.45416667,75.31111111,Panathadi,Kerala,Kasaragod,19
12.59055556,75.12638889,Badiadka,Kerala,Kasaragod,30
12.45388889,75.09166667,Bedadka,Kerala,Kasaragod,19
12.32083333,75.28888889,Bhimanadi,Kerala,Kasaragod,21
9.475,76.53333333,Anandasram,Kerala,Kottayam,17
9.60416667,76.60833333,Cheruthikara,Kerala,Kottayam,19
9.4225,76.5575,Edinjillam,Kerala,Kottayam,17
9.59861111,76.73194444,Elamkulam,Kerala,Kottayam,16
9.48055556,76.84861111,Erumeli,Kerala,Kottayam,16
9.66666667,76.55833333,Ettumannur,Kerala,Kottayam,19
9.525,76.66666667,Kangazha,Kerala,Kottayam,19
9.66944444,76.61111111,Kidangoor,Kerala,Kottayam,19
9.76805556,76.56666667,Kozha,Kerala,Kottayam,19
9.65,76.65833333,Kozhuvanal,Kerala,Kottayam,19
9.75833333,76.575,Kuravilangad,Kerala,Kottayam,19
9.56777778,76.8825,Kuttikal-R1,Kerala,Kottayam,16
9.53333333,76.81666667,Kuvapalli,Kerala,Kottayam,16
9.74111111,76.61444444,Marangattu palli,Kerala,Kottayam,19
9.80972222,76.57777778,Monipalli,Kerala,Kottayam,20
9.46666667,76.8,Mukkada,Kerala,Kottayam,16
9.53333333,76.88333333,Mundakayam,Kerala,Kottayam,16
9.46666667,76.59166667,Mundukuzhi,Kerala,Kottayam,19
9.42777778,76.575,Paippad,Kerala,Kottayam,17
9.71111111,76.68055556,Palai,Kerala,Kottayam,18
9.5625,76.64722222,Pambadi,Kerala,Kottayam,19
9.52777778,76.54305556,Paruthumpara,Kerala,Kottayam,19
9.66666667,76.8,Punjar,Kerala,Kottayam,18
9.53055556,76.75833333,Thekethukavala,Kerala,Kottayam,16
9.52916667,76.60555556,Thottakkad,Kerala,Kottayam,19
9.43333333,76.56388889,Trikodithanam,Kerala,Kottayam,17
9.64166667,76.71944444,Urulikunnam,Kerala,Kottayam,19
9.63333333,76.60527778,Ayarkunnam,Kerala,Kottayam,19
9.81027778,76.39611111,Chempu,Kerala,Kottayam,24
9.56611111,76.84722222,Chotti,Kerala,Kottayam,16
9.49444444,76.62888889,Koothrappally,Kerala,Kottayam,19
9.75722222,76.55305556,Kuravilangad1,Kerala,Kottayam,19
9.69888889,76.41944444,Madapally,Kerala,Kottayam,20
9.49388889,76.74972222,Manimala,Kerala,Kottayam,16
9.6475,76.52,Mannanam,Kerala,Kottayam,20
9.68666667,76.505,Neendur,Kerala,Kottayam,20
9.69972222,76.75833333,Panackapalam Jn,Kerala,Kottayam,18
9.46361111,76.78111111,Ponthanpuzha,Kerala,Kottayam,16
9.55777778,76.68138889,Pulikkal Kavala,Kerala,Kottayam,19
9.79194444,76.61083333,Uzhavoor (R1),Kerala,Kottayam,20
9.53055556,76.50972222,Nattagam,Kerala,Kottayam,19
9.67166667,76.78083333,Veyilnanampara (Kondur),Kerala,Kottayam,18
9.81472222,76.42277778,Brahmamangalam,Kerala,Kottayam,24
9.74,76.76361111,Edamaruku,Kerala,Kottayam,18
9.72861111,76.47694444,Ethakuzhy ( Kallara),Kerala,Kottayam,20
9.715,76.60916667,Kadaplamattom,Kerala,Kottayam,19
9.76444444,76.69972222,Kollappally,Kerala,Kottayam,18
9.6,76.6475,Kooroppada,Kerala,Kottayam,19
9.67833333,76.42083333,Kudavechur,Kerala,Kottayam,20
9.68833333,76.62166667,Kummannur,Kerala,Kottayam,19
9.78527778,76.76166667,Melukavu Mattom,Kerala,Kottayam,18
9.7375,76.67,Ponad,Kerala,Kottayam,19
9.74583333,76.70138889,Pravithanam,Kerala,Kottayam,18
9.62277778,76.57666667,Thiruvanchoor,Kerala,Kottayam,19
9.73694444,76.41333333,Thottakam,Kerala,Kottayam,20
9.77277778,76.395,Udayanapuram,Kerala,Kottayam,24
9.5225,76.57277778,Vakathanam,Kerala,Kottayam,19
9.51805556,76.76611111,Cheruvalli,Kerala,Kottayam,16
9.6575,76.77055556,Thidanad,Kerala,Kottayam,18
9.83,76.45222222,Vellur-III,Kerala,Kottayam,24
9.80083333,76.49805556,Arunuttimangalam,Kerala,Kottayam,20
9.75277778,76.47305556,Ayamkudi,Kerala,Kottayam,20
9.53777778,76.72055556,Chamampathal,Kerala,Kottayam,16
9.44527778,76.52944444,Changanasserry,Kerala,Kottayam,17
9.81055556,76.39472222,Chempu- West,Kerala,Kottayam,24
9.59472222,76.47472222,Chengalam South,Kerala,Kottayam,20
9.66444444,76.54277778,Iykarakunnam,Kerala,Kottayam,20
9.76138889,76.49222222,Kaduthuruthi,Kerala,Kottayam,20
9.61694444,76.7775,Kalakatty,Kerala,Kottayam,18
9.59,76.55444444,Kalathipady,Kerala,Kottayam,19
9.72055556,76.54416667,Kalathur,Kerala,Kottayam,19
9.66666667,76.60861111,Kidangur-R1,Kerala,Kottayam,19
9.59333333,76.52361111,Kottayam (R1),Kerala,Kottayam,19
9.58694444,76.4375,Kumarakom,Kerala,Kottayam,20
9.72972222,76.73888889,Narianganam,Kerala,Kottayam,18
9.7925,76.44111111,Palamkadavu,Kerala,Kottayam,24
9.5125,76.73888889,Plakkalpadi,Kerala,Kottayam,16
9.67361111,76.79583333,Poonjar,Kerala,Kottayam,18
9.62555556,76.49333333,Pulikuttisseri,Kerala,Kottayam,20
9.57888889,76.47194444,Thiruvarpu,Kerala,Kottayam,20
9.74972222,76.39305556,Vaikom,Kerala,Kottayam,20
9.56944444,76.72305556,Vazhur,Kerala,Kottayam,16
9.66361111,76.42388889,Vechur,Kerala,Kottayam,20
9.71916667,76.56,Vempalle,Kerala,Kottayam,19
9.55888889,76.76166667,Kanjirapally,Kerala,Kottayam,16
9.8,76.65,Ramapuram (R1),Kerala,Kottayam,18
9.60305556,76.51694444,Chungam,Kerala,Kottayam,19
9.425,76.9125,Edakadathy,Kerala,Kottayam,13
9.50805556,76.52666667,Kurichy (Sachivothamapuram),Kerala,Kottayam,19
9.74166667,76.51527778,Kuruppanthara,Kerala,Kottayam,20
9.84361111,76.46388889,Mevellur,Kerala,Kottayam,23
9.44666667,76.87638889,Mukkoottuthara,Kerala,Kottayam,16
9.69277778,76.65666667,Mutholi,Kerala,Kottayam,19
9.50722222,76.66166667,Nedumkunnam,Kerala,Kottayam,17
9.60111111,76.68444444,Pallikkathodu (R1),Kerala,Kottayam,19
9.62611111,76.67388889,Poovathilappu,Kerala,Kottayam,19
9.55555556,76.57333333,Puthupally,Kerala,Kottayam,19
9.69944444,76.80888889,Teekoy,Kerala,Kottayam,18
9.59305556,76.50138889,Thazhathangadi,Kerala,Kottayam,19
9.78333333,76.43694444,Thalayolaparambu,Kerala,Kottayam,24
10.93333333,76.01666667,Amminikad,Kerala,Malappuram,18
11.23333333,76.04166667,Arikode,Kerala,Malappuram,14
10.94861111,76.00277778,Athirumada,Kerala,Malappuram,18
11.41666667,76.25,Buliyampadam (Velumbiampadam),Kerala,Malappuram,13
10.79722222,75.925,Chamravattom,Kerala,Malappuram,11
10.925,76.225,Cherukara,Kerala,Malappuram,10
11.23333333,76.33333333,Chokkad,Kerala,Malappuram,14
11.37388889,76.29361111,Edakkara,Kerala,Malappuram,13
10.78194444,76.01666667,Edappal,Kerala,Malappuram,11
10.80833333,75.91666667,Iswaramangalam,Kerala,Malappuram,11
11.1375,76.08333333,Kadalundi,Kerala,Malappuram,15
11.03333333,76.1625,Kadannamanna,Kerala,Malappuram,17
10.82027778,75.99388889,Kaladi1,Kerala,Malappuram,11
11.16944444,76.32083333,Kalikavu,Kerala,Malappuram,14
10.76111111,75.96666667,Kanjiramukku,Kerala,Malappuram,11
10.98333333,76.225,Kariavattam,Kerala,Malappuram,17
10.9,76.03333333,Karipol,Kerala,Malappuram,11
11.28333333,76.32777778,Karulai,Kerala,Malappuram,12
11.28166667,76.29722222,Karulayi,Kerala,Malappuram,12
11.125,76.33333333,Karuvarakundu,Kerala,Malappuram,17
11.05,75.95833333,Kizhumuri,Kerala,Malappuram,18
11.14722222,75.9625,Kondotty,Kerala,Malappuram,18
10.97083333,75.98333333,Kottakkal,Kerala,Malappuram,18
10.93611111,76.14166667,Kulattur,Kerala,Malappuram,10
10.84583333,76.03055556,Kuttipuram,Kerala,Malappuram,11
11.035,76.09055556,Malappuram,Kerala,Malappuram,17
10.85,75.91666667,Mangalam,Kerala,Malappuram,11
11.11805556,76.12083333,Manjeri,Kerala,Malappuram,15
10.74722222,75.97361111,Marancheri,Kerala,Malappuram,11
11.41666667,76.325,Maruda,Kerala,Malappuram,12
11.03333333,76.26666667,Melattur,Kerala,Malappuram,17
11.06666667,76.16666667,Mudikode,Kerala,Malappuram,17
11.21666667,75.95833333,Olavattur,Kerala,Malappuram,16
11.025,76.03138889,Othukkungal,Kerala,Malappuram,18
11.09166667,76.225,Pandikkad,Kerala,Malappuram,17
10.92083333,76.28194444,Paral,Kerala,Malappuram,10
11.10277778,75.92527778,Parambilpeedika,Kerala,Malappuram,18
11.04666667,75.85972222,Parappanangadi,Kerala,Malappuram,18
10.97333333,76.22861111,Perinthalmanna,Kerala,Malappuram,17
10.70277778,75.98888889,Perumpadappu,Kerala,Malappuram,11
10.98638889,76.07222222,Ponmala,Kerala,Malappuram,18
10.78166667,75.92083333,Ponnani1,Kerala,Malappuram,11
11.09583333,76.08194444,Pookottoor,Kerala,Malappuram,18
10.88333333,76.075,Pukattery,Kerala,Malappuram,11
10.90555556,76.18611111,Pulamantol,Kerala,Malappuram,10
10.99916667,76.13666667,Puzhakkattkiri,Kerala,Malappuram,17
11.05833333,76.2,Tachinganedam,Kerala,Malappuram,17
10.98333333,75.875,Tanur,Kerala,Malappuram,11
11.10277778,75.9,Tenjippalam,Kerala,Malappuram,18
10.83333333,75.96944444,Thavanur,Kerala,Malappuram,11
10.93333333,76.3,Thazhekode,Kerala,Malappuram,10
11.01722222,76.27972222,Thelakkad,Kerala,Malappuram,17
10.86666667,75.98472222,Thirunavaya,Kerala,Malappuram,11
11.19777778,76.17861111,Thiruvali,Kerala,Malappuram,14
11.11027778,76.28472222,Thuvur,Kerala,Malappuram,17
10.90972222,75.92083333,Tirur,Kerala,Malappuram,11
11.025,75.9,Tirurangadi,Kerala,Malappuram,18
11.15833333,76.04444444,Tripanchi,Kerala,Malappuram,15
11,76.04166667,Vadakkemanna,Kerala,Malappuram,18
11.38916667,76.34888889,Vazhikadavu,Kerala,Malappuram,12
10.875,75.89722222,Vettom,Kerala,Malappuram,11
11.2,76.23333333,Wandur,Kerala,Malappuram,14
10.97638889,76.10972222,Kuruva,Kerala,Malappuram,18
10.78611111,75.94444444,Vylattur (R1),Kerala,Malappuram,11
11.33333333,76.275,Chungathara,Kerala,Malappuram,13
11.20833333,76.15,Edavanna,Kerala,Malappuram,14
11.19972222,76.17805556,ThiruvaliDW,Kerala,Malappuram,14
11.11027778,76.28472222,Thuvur DW,Kerala,Malappuram,17
11.05,76.11666667,Vellila,Kerala,Malappuram,17
11.125,76.33944444,Athani,Kerala,Malappuram,17
11.19694444,76.21333333,Eriyad,Kerala,Malappuram,14
11.12444444,76.33555556,Karavarakundu Pz,Kerala,Malappuram,17
11.19972222,76.17805556,Kattumunda,Kerala,Malappuram,14
11.19583333,76.06416667,Kavanur1,Kerala,Malappuram,15
11.16527778,75.93388889,Kottapuram,Kerala,Malappuram,18
10.98333333,75.875,Krishnapuram Puthentheru,Kerala,Malappuram,11
11.12888889,75.99555556,Nediyirippu Pz,Kerala,Malappuram,18
11.08472222,76.16666667,Pandalur,Kerala,Malappuram,17
11.07527778,76.28055556,Puthenkulam,Kerala,Malappuram,17
10.99944444,76.13805556,Ramapuram,Kerala,Malappuram,17
10.96416667,76.28611111,Thazhekod Kappumugham,Kerala,Malappuram,10
10.90305556,76.05916667,Thozhuvannur,Kerala,Malappuram,11
10.99166667,76.18305556,Tirukkad,Kerala,Malappuram,17
10.88055556,75.89611111,Vettom1,Kerala,Malappuram,11
11.19972222,76.17805556,Pukothu,Kerala,Malappuram,14
10.97777778,76.20722222,Angadipuram,Kerala,Malappuram,17
10.85972222,75.96166667,Beeranchira,Kerala,Malappuram,11
11.37694444,76.29388889,Karunechi,Kerala,Malappuram,12
11.06638889,76.31138889,Narokavu,Kerala,Malappuram,17
11.13222222,75.98861111,Nediyirippu,Kerala,Malappuram,18
11.10416667,75.925,Parambilpeedika,Kerala,Malappuram,18
11.13055556,76.17888889,Cherukulam,Kerala,Malappuram,17
11.02694444,76.03027778,Othukkungal DW,Kerala,Malappuram,18
11.08416667,76.16638889,Pandalur DW,Kerala,Malappuram,17
10.99333333,76.08805556,Akkaparambu,Kerala,Malappuram,18
11.08333333,76.1225,Anakkayam,Kerala,Malappuram,17
11.08277778,75.84916667,Ariyallur,Kerala,Malappuram,18
11.20944444,76.26,Athanikkal,Kerala,Malappuram,14
11.13111111,76.11388889,Cherani,Kerala,Malappuram,15
10.94138889,76.10194444,Edayur,Kerala,Malappuram,11
10.94388889,76.04277778,Kadampuzha,Kerala,Malappuram,18
10.98138889,76.13861111,Kadungapuram,Kerala,Malappuram,17
11.11444444,75.95694444,Karuvankallu,Kerala,Malappuram,18
10.84888889,76.08333333,Mankeri,Kerala,Malappuram,11
11.10722222,76.17916667,Nellikuth,Kerala,Malappuram,17
11.24416667,76.29916667,Pookottumpadam,Kerala,Malappuram,12
10.81055556,75.91666667,Purathur,Kerala,Malappuram,11
11.17333333,76.13666667,Thrikkalangode,Kerala,Malappuram,14
11.37111111,76.27,Uppada,Kerala,Malappuram,13
10.93944444,75.97611111,Valavannur,Kerala,Malappuram,18
10.92472222,76.12361111,Vengad,Kerala,Malappuram,10
11.02944444,75.94166667,Karumbil,Kerala,Malappuram,18
11.33666667,76.31416667,Moothedam,Kerala,Malappuram,12
11.19027778,76.16111111,Pathiriyal,Kerala,Malappuram,14
10.97805556,76.15527778,Puzhakkatteri,Kerala,Malappuram,17
10.89527778,76.07416667,Valancheri (R1),Kerala,Malappuram,11
11.18833333,76.25944444,Vaniyambalam,Kerala,Malappuram,14
10.93333333,76.01666667,Ammnikad  Pz,Kerala,Malappuram,18
10.94833333,75.87722222,Anjuvadi,Kerala,Malappuram,11
10.92694444,76.18083333,Chemmalassery,Kerala,Malappuram,10
11.08583333,75.9525,Kunnumpuram,Kerala,Malappuram,18
10.87722222,76.11722222,Mankeri Pz,Kerala,Malappuram,10
10.94055556,75.90861111,Meenedathur,Kerala,Malappuram,11
10.9825,75.97111111,Moochikkal ( Clari Moochikkal),Kerala,Malappuram,18
11.27555556,76.22305556,Nilambur (R1),Kerala,Malappuram,14
11.09666667,75.89694444,Padikkal,Kerala,Malappuram,18
11.01277778,75.995,Parappur,Kerala,Malappuram,18
10.90166667,75.89194444,Paravana,Kerala,Malappuram,11
11.11805556,76.1525,Payyanad,Kerala,Malappuram,17
11.08638889,76.25222222,Peruvakkad,Kerala,Malappuram,17
11.13638889,76.09277778,Ramankulam,Kerala,Malappuram,15
10.89527778,76.07472222,Valancheri Pz,Kerala,Malappuram,11
10.88138889,76.08861111,Valiyakunnu,Kerala,Malappuram,11
11.24611111,75.95777778,Vazhakkad,Kerala,Malappuram,15
11.01694444,75.94916667,Venniyur,Kerala,Malappuram,18
11.15916667,76.23083333,Cherukode,Kerala,Malappuram,17
10.865,75.98,Karathur,Kerala,Malappuram,11
11.90611111,76.03277778,Appapara,Kerala,Wayanad,14
11.73333333,76.24444444,Chenad,Kerala,Wayanad,15
11.75,76.225,Cheyyambam,Kerala,Wayanad,15
11.675,76.075,Kamblakat,Kerala,Wayanad,13
11.84861111,76.06861111,Kattikulam,Kerala,Wayanad,14
11.63583333,76.01555556,Kavumandam,Kerala,Wayanad,13
11.74861111,76.01888889,Kellur -5th Mile,Kerala,Wayanad,13
11.75277778,75.80527778,Koroth,Kerala,Wayanad,21
11.67694444,76.02444444,Kottathara,Kerala,Wayanad,13
11.695,76.25833333,Kuppadi(east),Kerala,Wayanad,13
11.5225,76.02222222,Lakkidi,Kerala,Wayanad,13
11.80666667,76.00555556,Mannanthody,Kerala,Wayanad,14
11.55,76.13333333,Meppady,Kerala,Wayanad,13
11.66,76.1625,Minangadi,Kerala,Wayanad,13
11.67638889,76.37361111,Muthunga,Kerala,Wayanad,18
11.66694444,76.31555556,Naykatti,Kerala,Wayanad,18
11.73416667,76.07472222,Panamaram,Kerala,Wayanad,13
11.79166667,76.225,Perikallur,Kerala,Wayanad,15
11.83333333,75.83888889,Perya,Kerala,Wayanad,14
11.58611111,76.01888889,Pozhutana,Kerala,Wayanad,13
11.58638889,76.02,Pozhutana1,Kerala,Wayanad,13
11.725,76.13333333,Pulpally,Kerala,Wayanad,13
11.83333333,75.98333333,Talapuzha,Kerala,Wayanad,14
11.555,76.22555556,Vaduvanchal,Kerala,Wayanad,13
11.68111111,76.00694444,Valliyurkavu(e),Kerala,Wayanad,13
11.55583333,76.04027778,Vayittiri,Kerala,Wayanad,13
11.73055556,75.94722222,Vellamunda,Kerala,Wayanad,13
11.67527778,75.97722222,Padinjarattara,Kerala,Wayanad,13
11.56388889,76.09944444,Pookode,Kerala,Wayanad,13
11.68111111,76.00666667,Valliyurkavu(w),Kerala,Wayanad,13
11.60666667,76.2125,Ambalavayal,Kerala,Wayanad,13
11.83333333,75.98333333,Taruvana,Kerala,Wayanad,14
11.76388889,76.17138889,Begur,Kerala,Wayanad,15
11.79694444,76.07861111,Dasanakkara,Kerala,Wayanad,14
11.60611111,76.08416667,Kalpetta-R1,Kerala,Wayanad,13
11.63583333,76.27694444,Koliyadi,Kerala,Wayanad,18
11.80222222,76.06861111,Koodal Kadavu,Kerala,Wayanad,14
11.66277778,76.19055556,Krishnagiri,Kerala,Wayanad,13
11.80777778,75.92416667,Mampayil,Kerala,Wayanad,14
11.545,76.17972222,Manjapara,Kerala,Wayanad,13
11.69055556,76.12805556,Moolankavu,Kerala,Wayanad,13
11.74666667,76.12027778,Nadavayal,Kerala,Wayanad,13
11.545,76.17972222,Nedugarana,Kerala,Wayanad,13
11.69055556,76.12805556,Nenmeni Kunnu,Kerala,Wayanad,13
11.835,76.15722222,Pattanikoopu,Kerala,Wayanad,15
11.75055556,76.09138889,Punchvayal,Kerala,Wayanad,13
11.62444444,76.31638889,Vallathur,Kerala,Wayanad,18
11.83333333,75.83888889,Varayal,Kerala,Wayanad,14
11.63583333,76.27694444,Vengapalli,Kerala,Wayanad,18
11.69055556,76.12805556,Arimula,Kerala,Wayanad,13
11.58166667,76.10527778,Kottavayal,Kerala,Wayanad,13
11.69055556,76.25777778,Kuppadi,Kerala,Wayanad,18
11.64361111,76.29722222,Melaputhenkunnu,Kerala,Wayanad,18
11.53527778,76.02888889,Pookode1,Kerala,Wayanad,13
11.66111111,76.25277778,Sulthan Battery,Kerala,Wayanad,18
11.90972222,75.99416667,Thirunelly (R1),Kerala,Wayanad,14
11.64361111,76.29722222,Ullisseri,Kerala,Wayanad,18
11.64055556,76.18666667,Cheenkeri,Kerala,Wayanad,13
11.67916667,76.02333333,Kottathara,Kerala,Wayanad,13
11.64166667,76.11055556,Muttil,Kerala,Wayanad,13
11.77444444,76.08083333,Neervaram,Kerala,Wayanad,13
11.82833333,76.02555556,Ondyangadi,Kerala,Wayanad,14
11.9025,76.06666667,Thetrode,Kerala,Wayanad,14
11.77111111,76.00055556,Thonichal,Kerala,Wayanad,14
11.94305556,76.06694444,Tholpetty,Kerala,Wayanad,14
11.68222222,76.20583333,CC Junction,Kerala,Wayanad,13
11.53611111,76.24388889,Chellakod,Kerala,Wayanad,13
11.60111111,76.25638889,Chulliyod,Kerala,Wayanad,13
11.8,76.20083333,Kappiset,Kerala,Wayanad,15
11.73444444,76.11277778,Karani,Kerala,Wayanad,13
11.60833333,76.35,Noolpuzha,Kerala,Wayanad,18
11.83944444,76.11583333,Baveli,Kerala,Wayanad,14
11.7375,75.90861111,Kanjirangad,Kerala,Wayanad,14
11.81666667,76.16361111,Mullankolly,Kerala,Wayanad,15
11.71083333,76.07972222,Pachilakkad,Kerala,Wayanad,13
11.80194444,76.10361111,Pakkam,Kerala,Wayanad,14
11.67916667,76.05277778,Pallikunnu,Kerala,Wayanad,13
11.84,75.95166667,Thavinjal Pz,Kerala,Wayanad,14
11.79027778,75.90694444,Valad (R1),Kerala,Wayanad,14
11.84083333,75.885,Vallithodu (Periye),Kerala,Wayanad,22
11.68111111,76.00666667,Valliyur kavu,Kerala,Wayanad,13
9.48611111,76.32638889,Alissery (warkalli),Kerala,Alappuzha,17
9.49166667,76.32638889,Alleppey,Kerala,Alappuzha,17
9.23333333,76.57638889,Aranootimangalam,Kerala,Alappuzha,15
9.85,76.31666667,Arukutti,Kerala,Alappuzha,24
9.83333333,76.3,Chandirur(R1),Kerala,Alappuzha,24
9.7,76.35,Cherthalai,Kerala,Alappuzha,24
9.24972222,76.51833333,Chettikulangara,Kerala,Alappuzha,15
9.2875,76.46388889,Haripad,Kerala,Alappuzha,15
9.18333333,76.60833333,Idakunnam,Kerala,Alappuzha,12
9.33333333,76.61666667,Kallissery,Kerala,Alappuzha,15
9.25,76.45,Karthikapally(south),Kerala,Alappuzha,31
9.33333333,76.41666667,Karuvatta,Kerala,Alappuzha,15
9.175,76.56666667,Kattanam,Kerala,Alappuzha,31
9.18333333,76.48333333,Kayamkulam,Kerala,Alappuzha,31
9.15416667,76.51388889,Krishnapuram(n),Kerala,Alappuzha,31
9.20555556,76.63611111,Kuzhamathu,Kerala,Alappuzha,12
9.28722222,76.5625,Mannar,Kerala,Alappuzha,15
9.25,76.51111111,Muttam,Kerala,Alappuzha,15
9.43333333,76.38333333,Nedumudi (pupalli),Kerala,Alappuzha,17
9.175,76.64027778,Nooranad,Kerala,Alappuzha,31
9.20416667,76.53611111,Pallarimangalam,Kerala,Alappuzha,15
9.73333333,76.29166667,Pattanakad,Kerala,Alappuzha,24
9.34722222,76.36666667,Purakkad (R1),Kerala,Alappuzha,17
9.14166667,76.61388889,Thamarakulam,Kerala,Alappuzha,31
9.23333333,76.54166667,Thevery,Kerala,Alappuzha,15
9.68333333,76.3,Thuravur,Kerala,Alappuzha,20
9.6,76.33333333,Valavanad,Kerala,Alappuzha,20
9.13333333,76.55555556,Vallikunnam,Kerala,Alappuzha,31
9.3625,76.45138889,Pacha(R3),Kerala,Alappuzha,17
9.24972222,76.51833333,Chettikulangara Pz,Kerala,Alappuzha,15
9.2875,76.46388889,Haripad(e),Kerala,Alappuzha,15
9.2875,76.46388889,Haripad(n),Kerala,Alappuzha,15
9.45833333,76.34166667,Kaidavana,Kerala,Alappuzha,17
9.45833333,76.33333333,Kalarkode(w),Kerala,Alappuzha,17
9.55611111,76.31972222,Kattoor,Kerala,Alappuzha,20
9.21666667,76.48333333,Pathiyur-R1,Kerala,Alappuzha,31
9.2875,76.46388889,Haripad(w),Kerala,Alappuzha,15
9.175,76.56666667,Kattanam1,Kerala,Alappuzha,31
9.17666667,76.53,Adikattukulangara,Kerala,Alappuzha,31
9.48333333,76.34416667,Alapuzha Town,Kerala,Alappuzha,17
9.38333333,76.3775,Ambalapuzha,Kerala,Alappuzha,17
9.86972222,76.305,Arur,Kerala,Alappuzha,24
9.41055556,76.41472222,Champakulam,Kerala,Alappuzha,17
9.17333333,76.60694444,Charummud,Kerala,Alappuzha,15
9.31666667,76.6275,Chengannur,Kerala,Alappuzha,15
9.27166667,76.52083333,Chennithala South,Kerala,Alappuzha,15
9.86972222,76.305,Eramallur,Kerala,Alappuzha,24
9.56666667,76.3275,Kalavur,Kerala,Alappuzha,20
9.43333333,76.49416667,Kunnamkari,Kerala,Alappuzha,17
9.57222222,76.34722222,Mananchery,Kerala,Alappuzha,20
9.8,76.31083333,Mancombu,Kerala,Alappuzha,24
9.3,76.54416667,Mannar,Kerala,Alappuzha,15
9.30055556,76.63444444,Mulakuzha1,Kerala,Alappuzha,15
9.21611111,76.46361111,Muthukulam,Kerala,Alappuzha,31
9.38888889,76.51361111,Muttar,Kerala,Alappuzha,17
9.27222222,76.48027778,Naduvattom,Kerala,Alappuzha,15
9.43333333,76.44416667,Punnapra,Kerala,Alappuzha,17
9.67805556,76.39027778,Thaneermukkam,Kerala,Alappuzha,20
9.36666667,76.46611111,Edathua,Kerala,Alappuzha,17
9.65666667,76.37611111,Cheruvaranam,Kerala,Alappuzha,20
9.70444444,76.32555556,Kalavamkodam,Kerala,Alappuzha,24
9.63277778,76.31361111,Kanichukulangara,Kerala,Alappuzha,20
9.17666667,76.53,Kuttitheruvu (Kayamkulam),Kerala,Alappuzha,31
9.7375,76.3625,Ottappunna,Kerala,Alappuzha,20
9.81388889,76.35166667,Panavally,Kerala,Alappuzha,24
9.78333333,76.34166667,Thaikattusseri,Kerala,Alappuzha,24
9.36833333,76.50722222,Thalavadi (R1),Kerala,Alappuzha,17
9.60805556,76.34083333,Vanaswargam,Kerala,Alappuzha,20
9.41361111,76.34916667,Vandanam,Kerala,Alappuzha,17
9.2,76.65,Kudassanad,Kerala,Alappuzha,12
9.25,76.5375,Mavelikara,Kerala,Alappuzha,15
9.25166667,76.45194444,Nangiarkulangara,Kerala,Alappuzha,31
9.325,76.58222222,Pandanad,Kerala,Alappuzha,15
9.24694444,76.61555556,Venmani (R1),Kerala,Alappuzha,12
9.27166667,76.505,Chelakkad,Kerala,Alappuzha,15
9.28222222,76.60972222,Kadaikadu  (Cheriyanad ),Kerala,Alappuzha,12
9.25,76.52916667,Kandiyur (R1),Kerala,Alappuzha,15
9.625,76.36694444,Kayippuram (Muhamma),Kerala,Alappuzha,20
9.67972222,76.37416667,Kokkothamangalam,Kerala,Alappuzha,20
9.42027778,76.38444444,Panurkara,Kerala,Alappuzha,17
9.68611111,76.29083333,Thyckal Beach,Kerala,Alappuzha,20
9.77416667,76.30444444,Parayakkad,Kerala,Alappuzha,24
9.25888889,76.40944444,Trikkunnapuzha (R2),Kerala,Alappuzha,31
9.14583333,76.51388889,Oachira,Kerala,Alappuzha,31
9.31916667,76.545,Parumala,Kerala,Alappuzha,15
9.41805556,76.48472222,Ramankari,Kerala,Alappuzha,17
9.40888889,76.35,Neerkunnam,Kerala,Alappuzha,17
8.94444444,76.96805556,Ailara,Kerala,Kollam,27
8.8625,76.82361111,Akkal,Kerala,Kollam,32
8.92777778,76.91666667,Anchal,Kerala,Kollam,32
8.92777778,76.60277778,Anchalammud,Kerala,Kollam,28
8.96666667,77.14722222,Ariyankavu,Kerala,Kollam,26
9.03611111,76.85277778,Avaneswaram,Kerala,Kollam,27
8.88888889,76.86388889,Ayur,Kerala,Kollam,32
8.8875,76.95694444,Channapetta,Kerala,Kollam,32
8.875,76.75,Chenkulam,Kerala,Kollam,32
9,76.9875,Edamon,Kerala,Kollam,27
8.97916667,76.71666667,Ezhukone,Kerala,Kollam,28
8.85555556,76.61805556,Iravipuram1,Kerala,Kollam,32
8.86388889,76.69166667,Ithikara,Kerala,Kollam,32
8.82361111,76.91666667,Kadakkal,Kerala,Kollam,32
9.01944444,76.64583333,Kadapuzha,Kerala,Kollam,28
8.98333333,76.75277778,Kalluvathukkal,Kerala,Kollam,32
9.05833333,76.53527778,Karunagapally-I,Kerala,Kollam,31
9.08694444,77.12111111,Kottakayam,Kerala,Kollam,11
8.99722222,76.775,Kottarakara (R1),Kerala,Kollam,27
9.07638889,76.75416667,Kulakada,Kerala,Kollam,28
8.90833333,77.05555556,Kulathupuzha,Kerala,Kollam,26
8.98888889,76.6625,Kumbalam,Kerala,Kollam,28
9.10305556,76.80611111,Kunnada,Kerala,Kollam,27
8.94027778,76.75,Kutavettur,Kerala,Kollam,32
8.83194444,77.00833333,Madathara,Kerala,Kollam,32
9.09388889,76.56611111,Manappalli,Kerala,Kollam,31
8.92777778,76.69166667,Nallila,Kerala,Kollam,32
8.92805556,76.69194444,Nallila1,Kerala,Kollam,32
8.87222222,76.775,Oyur,Kerala,Kollam,32
9.08666667,76.85555556,Pathanapuram,Kerala,Kollam,27
9.05416667,76.7,Pavitreswaram,Kerala,Kollam,28
8.94722222,76.6375,Perinad,Kerala,Kollam,28
8.94694444,76.63805556,Perinad1,Kerala,Kollam,28
8.81194444,76.65694444,Pozhikara,Kerala,Kollam,32
9.08333333,76.9125,Punnala (R1),Kerala,Kollam,27
8.89,76.58333333,Quilon,Kerala,Kollam,28
9.04444444,76.61861111,Sasthamkottah (R1),Kerala,Kollam,31
8.95138889,76.88333333,Tadicaud,Kerala,Kollam,32
9.02083333,76.59444444,Tevalakara,Kerala,Kollam,31
8.96388889,77.06944444,Thenmala,Kerala,Kollam,26
8.9275,76.58194444,Trikkadavur,Kerala,Kollam,28
8.93472222,76.82222222,Ummannur,Kerala,Kollam,32
8.93333333,76.83777778,Ummmannur,Kerala,Kollam,32
9.01111111,76.53611111,Vadakkumthala west,Kerala,Kollam,31
9.09027778,76.49583333,Vallikavu,Kerala,Kollam,31
9.13,76.63388889,Vayyankara,Kerala,Kollam,31
8.93222222,76.95694444,Yeroor,Kerala,Kollam,32
8.93222222,76.96527778,Yeroor1,Kerala,Kollam,32
9.09166667,76.85833333,Pattanapuram,Kerala,Kollam,27
9.1,76.62083333,Sooranadu,Kerala,Kollam,31
9.01666667,76.92638889,Punalur-i,Kerala,Kollam,27
9.07027778,76.89611111,Alumoodu,Kerala,Kollam,27
8.89416667,76.635,Ayathil,Kerala,Kollam,28
9.08833333,76.63777778,Chakkuvalli,Kerala,Kollam,31
9.04166667,76.58944444,Kanjiramkode,Kerala,Kollam,31
8.92777778,76.69166667,Kottiyam,Kerala,Kollam,32
9.04194444,76.58972222,Kuripalli,Kerala,Kollam,31
9.10444444,76.57694444,Manapalli,Kerala,Kollam,31
9.10444444,76.57694444,Meenkulam,Kerala,Kollam,31
8.89194444,76.95194444,Muthukumel,Kerala,Kollam,32
8.83611111,76.685,Nedungolam,Kerala,Kollam,32
8.92777778,76.69166667,Oachira1,Kerala,Kollam,32
8.90833333,77.05555556,Ottakal,Kerala,Kollam,26
9.09,76.85583333,Palamoodu,Kerala,Kollam,27
8.8775,76.81083333,Thattamala,Kerala,Kollam,32
8.8775,76.81083333,Vazhathoppu,Kerala,Kollam,32
8.88055556,76.87222222,Chadayamangalam,Kerala,Kollam,32
8.99444444,76.53055556,Chavara,Kerala,Kollam,31
9.04194444,76.58972222,Mynagapalli,Kerala,Kollam,31
8.80972222,76.76111111,Paripally,Kerala,Kollam,32
8.92777778,76.69166667,Neendakara1,Kerala,Kollam,32
8.95833333,76.775,Nellikunnam,Kerala,Kollam,32
8.93638889,76.92166667,Alayamon,Kerala,Kollam,32
8.93555556,76.91666667,Anchal DW,Kerala,Kollam,32
8.81583333,76.69361111,Bhoothakulam,Kerala,Kollam,32
9.06916667,76.65222222,Cinemaparambu  (R1),Kerala,Kollam,28
8.91527778,76.86638889,Edamulakkal,Kerala,Kollam,32
8.94138889,76.85833333,Edayam,Kerala,Kollam,32
8.83861111,76.73888889,Kalluvathukkal,Kerala,Kollam,32
8.9375,77.04722222,Koovakad,Kerala,Kollam,26
8.94027778,77.04527778,Koovakad DW,Kerala,Kollam,26
8.90277778,76.70111111,Kulapadam,Kerala,Kollam,32
9.05916667,76.67916667,Kunnathur,Kerala,Kollam,28
8.85083333,76.64972222,Mayyanad,Kerala,Kollam,32
8.84555556,76.87861111,Nilamel,Kerala,Kollam,32
8.94611111,76.76583333,Odanavattom,Kerala,Kollam,32
8.82333333,76.94,Pangalukadu,Kerala,Kollam,32
9.07222222,76.66111111,Vazhathopu,Kerala,Kollam,28
8.91611111,76.76472222,Veliyam,Kerala,Kollam,32
8.95444444,76.98805556,Vilakkupara,Kerala,Kollam,27
8.93,76.98527778,Bharathipuram,Kerala,Kollam,32
8.81916667,76.96444444,Chithara,Kerala,Kollam,30
8.9075,76.66694444,Kalluvettumkuzhi,Kerala,Kollam,28
9.05611111,76.88527778,Kamukanchery,Kerala,Kollam,27
8.89555556,76.56861111,Kangathumukku,Kerala,Kollam,28
8.90333333,76.93277778,Karukone,Kerala,Kollam,32
9.10361111,76.53388889,Kurungapalli,Kerala,Kollam,31
8.85083333,76.69833333,Meenad,Kerala,Kollam,32
8.98583333,76.67805556,Mulavana,Kerala,Kollam,28
9.02083333,76.76833333,Pallickal,Kerala,Kollam,27
9.01166667,76.55138889,Panmana-Manayil,Kerala,Kollam,31
9.04333333,76.75694444,Perumkulam,Kerala,Kollam,27
8.80083333,76.66777778,Chathannur,Kerala,Kollam,32
9.01666667,76.65305556,East Kallada,Kerala,Kollam,28
8.87055556,77.045,Kandanchira,Kerala,Kollam,26
9.05361111,76.72861111,Kanjiramvila,Kerala,Kollam,28
8.84777778,76.72722222,Karamkode,Kerala,Kollam,32
8.97277778,76.92444444,Karavaloor,Kerala,Kollam,27
8.97972222,76.53611111,Kottamkulangara,Kerala,Kollam,28
9.02722222,76.74666667,Kottathala,Kerala,Kollam,27
9.03222222,76.73416667,Manakarakavu-Vendar,Kerala,Kollam,28
8.90111111,76.77638889,Nellikunnam DW,Kerala,Kollam,32
8.80083333,76.66777778,Paravur,Kerala,Kollam,32
9.04305556,76.71111111,Puthoor,Kerala,Kollam,28
9.10055556,76.52305556,Vavvakkavu,Kerala,Kollam,31
9.08333333,77.125,Achenkovil,Kerala,Kollam,11
8.82944444,76.86722222,Karunthalakode,Kerala,Kollam,32
8.84194444,76.86444444,Chadayamangalam Pz,Kerala,Kollam,32
9.08888889,76.58361111,Thodiyur,Kerala,Kollam,31
11.59166667,75.5875,Badagara,Kerala,Kozhikode,22
11.445,75.83,Balusseri,Kerala,Kozhikode,23
11.17166667,75.80694444,Beypore,Kerala,Kozhikode,16
11.29972222,75.88277778,Chelavur,Kerala,Kozhikode,16
11.40833333,75.725,Chemencheri,Kerala,Kozhikode,23
11.20777778,75.82055556,Cheruvannur pz,Kerala,Kozhikode,16
11.26944444,75.82638889,Chevayur pz,Kerala,Kozhikode,16
11.67305556,75.55583333,Chombala(w1),Kerala,Kozhikode,21
11.66666667,75.75,Devarkoil,Kerala,Kozhikode,22
11.3375,75.74444444,Elattur,Kerala,Kozhikode,23
11.54861111,75.89861111,Kakkayam,Kerala,Kozhikode,22
11.59861111,75.75972222,Kalikadavu pz,Kerala,Kozhikode,22
11.5,75.77361111,Karuvannur pz,Kerala,Kozhikode,23
11.35833333,75.90972222,Koduvalli,Kerala,Kozhikode,23
11.25,75.79166667,Kozhikode City-II,Kerala,Kozhikode,16
11.35,75.93333333,Malayamma,Kerala,Kozhikode,16
11.55,75.83333333,Mattanodu,Kerala,Kozhikode,22
11.25722222,75.95555556,Mavoor-i,Kerala,Kozhikode,15
11.25,75.94222222,Mavoor-ii,Kerala,Kozhikode,15
11.53333333,75.83333333,Meppayur,Kerala,Kozhikode,22
11.67083333,75.55555556,Mukkali,Kerala,Kozhikode,21
11.53333333,75.66666667,Nadapuram,Kerala,Kozhikode,22
11.4375,75.94166667,Perambra,Kerala,Kozhikode,16
11.26388889,75.88333333,Peruvayal,Kerala,Kozhikode,16
11.75833333,75.73055556,Pudukayam,Kerala,Kozhikode,21
11.49722222,75.98472222,Pudupadi,Kerala,Kozhikode,16
11.375,75.86388889,Punnasseri,Kerala,Kozhikode,23
11.44,75.69416667,Quilandy,Kerala,Kozhikode,23
11.42166667,75.93833333,Tamarasseri,Kerala,Kozhikode,16
11.56666667,75.675,Thiruvallur,Kerala,Kozhikode,22
11.58333333,75.65944444,Thodannur(east),Kerala,Kozhikode,22
11.70611111,75.63694444,Thuneri pz,Kerala,Kozhikode,21
11.48861111,75.64694444,Tikkodi,Kerala,Kozhikode,23
11.45833333,75.775,Ulliyeri,Kerala,Kozhikode,23
11.45,75.88333333,Unnikulam,Kerala,Kozhikode,23
11.61666667,75.65,Villyapalli,Kerala,Kozhikode,22
11.45277778,75.80277778,Balussery pz,Kerala,Kozhikode,23
11.30833333,75.83333333,Chelannur,Kerala,Kozhikode,23
11.44527778,75.79111111,Kokallur pz,Kerala,Kozhikode,23
11.28861111,75.82833333,Vellimadakunnu pz,Kerala,Kozhikode,23
11.50972222,75.62361111,Meladi,Kerala,Kozhikode,23
11.25,75.79166667,Chevayur,Kerala,Kozhikode,16
11.67305556,75.55583333,Chombala(w2),Kerala,Kozhikode,21
11.67305556,75.55583333,Chombala(w3),Kerala,Kozhikode,21
11.67305556,75.55583333,Chombala(w4),Kerala,Kozhikode,21
11.17916667,75.83888889,Feroke DW,Kerala,Kozhikode,16
11.25,75.79166667,Karaparamba,Kerala,Kozhikode,16
11.72,75.63361111,Kayapanachi,Kerala,Kozhikode,21
11.25,75.79166667,Nallalam,Kerala,Kozhikode,16
11.175,75.85833333,Ramanattukara,Kerala,Kozhikode,16
11.72,75.63361111,Tuneri1,Kerala,Kozhikode,21
11.72,75.67083333,Valayam,Kerala,Kozhikode,21
11.25,75.79166667,Vellimadakunnu,Kerala,Kozhikode,16
11.72,75.7,Bhumivathukkal,Kerala,Kozhikode,21
11.18527778,75.82194444,Cheruvannur West,Kerala,Kozhikode,16
11.53861111,75.89666667,Kariyathumpara,Kerala,Kozhikode,22
11.50222222,75.77333333,Karuvannur,Kerala,Kozhikode,23
11.37166667,75.85611111,Kozhikkod Beach,Kerala,Kozhikode,23
11.30527778,75.87888889,Kunnamangalam,Kerala,Kozhikode,23
11.50222222,75.77333333,Kurachund,Kerala,Kozhikode,23
11.6625,75.73333333,Kuttiyadi,Kerala,Kozhikode,22
11.51111111,75.62166667,Melady 1,Kerala,Kozhikode,23
11.57833333,75.6,Nanminda,Kerala,Kozhikode,22
11.29416667,75.96055556,Nayarkuzhi,Kerala,Kozhikode,16
11.48111111,75.98138889,West Pudupadi,Kerala,Kozhikode,16
11.66666667,75.56111111,Chombala(pz),Kerala,Kozhikode,21
11.50416667,75.9,Atholi,Kerala,Kozhikode,23
11.40944444,75.78611111,Naduvannur,Kerala,Kozhikode,23
11.57833333,75.6,Pudupanam,Kerala,Kozhikode,22
11.44805556,75.85916667,Thenamkuzhi,Kerala,Kozhikode,23
11.30083333,75.93861111,Chulur,Kerala,Kozhikode,16
11.44555556,75.73694444,Kannoor,Kerala,Kozhikode,23
11.37166667,75.85611111,Narikunni,Kerala,Kozhikode,23
11.36777778,75.95027778,Puthur,Kerala,Kozhikode,16
11.58638889,75.64777778,Thodannur,Kerala,Kozhikode,22
11.67416667,75.71333333,Vattoli,Kerala,Kozhikode,21
11.68916667,75.66666667,Kallachi,Kerala,Kozhikode,21
11.43111111,76.00666667,Kodencherry,Kerala,Kozhikode,15
11.67277778,75.58055556,Kunnumakkara,Kerala,Kozhikode,21
11.63833333,75.805,Mullankunnu,Kerala,Kozhikode,22
11.65361111,75.60361111,Orkattery,Kerala,Kozhikode,21
11.36027778,76.00777778,Thiruvambady,Kerala,Kozhikode,15
11.17194444,75.87027778,Azhinjilam,Kerala,Kozhikode,16
11.735,75.68861111,Chiulavi (Niravamal),Kerala,Kozhikode,21
11.23,75.82888889,Iringallur,Kerala,Kozhikode,16
11.23333333,75.78916667,Kallai,Kerala,Kozhikode,16
11.36666667,75.91027778,Koduvalli North,Kerala,Kozhikode,23
11.13944444,75.83388889,Kottakadavu,Kerala,Kozhikode,18
11.32027778,75.96583333,Manassery,Kerala,Kozhikode,15
11.53416667,75.77333333,Muliyangal,Kerala,Kozhikode,23
11.40611111,76.01138889,Murampathy,Kerala,Kozhikode,15
11.19583333,75.80333333,Naduvattom,Kerala,Kozhikode,16
11.31166667,75.75861111,Pavangad,Kerala,Kozhikode,23
11.44416667,75.95555556,Perumpally,Kerala,Kozhikode,16
11.16777778,75.81444444,Chaliyam,Kerala,Kozhikode,
10.5125,76.57083333,Adiparanda,Kerala,Palakkad,07
11.1,76.65,Agali,Kerala,Palakkad,55
11.01861111,76.33333333,Alanallur,Kerala,Palakkad,17
10.65,76.54166667,Alathur,Kerala,Palakkad,06
10.8,76.375,Ambalappara,Kerala,Palakkad,10
10.67222222,76.47777778,Athipetta,Kerala,Palakkad,06
10.73277778,76.08638889,Chalisseri,Kerala,Palakkad,11
11.15555556,76.66805556,Chavadiyur,Kerala,Palakkad,55
10.57083333,76.83194444,Chemmampathi,Kerala,Palakkad,06
10.7,76.74166667,Chittoor,Kerala,Palakkad,05
10.68611111,76.86944444,Gopalapuram,Kerala,Palakkad,05
11.06666667,76.55,Kakkupady,Kerala,Palakkad,55
10.89583333,76.53333333,Kalladikode,Kerala,Palakkad,09
10.79444444,76.75,Kanjikode,Kerala,Palakkad,04
10.99166667,76.54166667,Kanjirapuzha,Kerala,Palakkad,09
10.73083333,76.63888889,Kannadi,Kerala,Palakkad,08
10.90416667,76.4,Karimpuzha,Kerala,Palakkad,10
10.68333333,76.65,Kodavayur,Kerala,Palakkad,06
10.75388889,76.63888889,Koduvayur,Kerala,Palakkad,05
10.61111111,76.68333333,Kollengode,Kerala,Palakkad,06
10.85722222,76.51555556,Kongad,Kerala,Palakkad,08
10.86111111,76.1875,Koppam,Kerala,Palakkad,10
10.91666667,76.375,Kottapuram,Kerala,Palakkad,10
10.85833333,76.5,Kottassery (Vattassery),Kerala,Palakkad,09
10.92777778,76.41944444,Kumaramputtur,Kerala,Palakkad,10
10.70833333,76.59444444,Kuzhalmannam,Kerala,Palakkad,08
10.825,76.67222222,Malampuzha,Kerala,Palakkad,04
10.82055556,76.66944444,Malampuzha1,Kerala,Palakkad,04
10.775,76.475,Mankara,Kerala,Palakkad,08
10.63777778,76.86277778,Meenakshipuram,Kerala,Palakkad,05
10.60833333,76.75,Meenkara,Kerala,Palakkad,06
10.83611111,76.58055556,Mundur,Kerala,Palakkad,04
10.59166667,76.59166667,Nemmara,Kerala,Palakkad,07
10.58472222,76.59166667,Nemmara1,Kerala,Palakkad,07
10.77916667,76.55416667,Odannur,Kerala,Palakkad,08
10.76666667,76.425,Ottapalam,Kerala,Palakkad,08
10.76666667,76.4125,Palappuram-ii,Kerala,Palakkad,08
10.66111111,76.77222222,Palghat,Kerala,Palakkad,05
10.80416667,76.18888889,Pattambi,Kerala,Palakkad,10
11.15305556,76.64583333,Pudur,Kerala,Palakkad,55
10.88222222,76.41944444,Punchapadam,Kerala,Palakkad,09
10.77083333,76.25833333,Shoranur,Kerala,Palakkad,10
10.775,76.05833333,Tannirkod,Kerala,Palakkad,11
11.07777778,76.58444444,Tavalam,Kerala,Palakkad,55
11.01111111,76.48888889,Tenkara,Kerala,Palakkad,09
10.95027778,76.32861111,Thachanattukara,Kerala,Palakkad,10
10.95833333,76.50833333,Thachanpara,Kerala,Palakkad,09
11.00833333,76.48888889,Thenkara,Kerala,Palakkad,09
10.775,76.17444444,Thirumittacode,Kerala,Palakkad,10
10.71666667,76.50833333,Tholanur,Kerala,Palakkad,08
10.8,76.13333333,Trittala,Kerala,Palakkad,10
10.58888889,76.48333333,Vadakkancherry,Kerala,Palakkad,07
10.58944444,76.48027778,Vadakkancherry1,Kerala,Palakkad,07
10.83333333,76.25,Vallapuzha,Kerala,Palakkad,10
10.76666667,76.325,Vaniyamkulam,Kerala,Palakkad,10
10.77722222,76.325,Vaniyamkulam1,Kerala,Palakkad,10
10.83333333,76.8375,Walayar,Kerala,Palakkad,04
10.875,76.325,Cherpulassery (R1),Kerala,Palakkad,10
10.80416667,76.85138889,Velanthavalam,Kerala,Palakkad,04
10.85722222,76.51555556,Chakkanthara,Kerala,Palakkad,08
10.68611111,76.86944444,Kambilichungam,Kerala,Palakkad,05
10.68611111,76.86944444,Kongad1,Kerala,Palakkad,05
10.85722222,76.51555556,Kootanad,Kerala,Palakkad,08
10.73333333,76.85,Kozhinjampara,Kerala,Palakkad,03
10.68611111,76.86944444,Kozhipara,Kerala,Palakkad,05
10.8,76.13333333,Kudallur,Kerala,Palakkad,10
10.85722222,76.51555556,Kumaranallur,Kerala,Palakkad,08
10.85722222,76.51555556,Mattumanda,Kerala,Palakkad,08
10.68611111,76.86944444,Oothara,Kerala,Palakkad,05
10.68611111,76.86944444,Panayur,Kerala,Palakkad,05
10.85722222,76.51555556,Peringode,Kerala,Palakkad,08
10.68611111,76.86944444,Perumatty1,Kerala,Palakkad,05
10.68611111,76.86944444,Pudhunagaram,Kerala,Palakkad,05
10.79083333,76.72472222,Kanjikode(FCRI),Kerala,Palakkad,04
10.73361111,76.63416667,Kannadi,Kerala,Palakkad,08
10.64666667,76.81055556,Kannimari,Kerala,Palakkad,06
10.9175,76.42,Karimpuzha,Kerala,Palakkad,10
10.79416667,76.83694444,Kozhipara Pz,Kerala,Palakkad,04
10.64333333,76.59361111,Kunisseri,Kerala,Palakkad,06
10.64083333,76.51277778,Kunnissery,Kerala,Palakkad,06
10.76111111,76.43611111,Lakkidi Thekkumangalam,Kerala,Palakkad,08
10.58027778,76.80888889,Moochangundu,Kerala,Palakkad,06
10.83611111,76.58055556,Mundur Pz,Kerala,Palakkad,04
10.60388889,76.76277778,Muthalamada1,Kerala,Palakkad,06
10.79722222,76.2125,Ongallur,Kerala,Palakkad,10
10.65555556,76.47638889,Padur,Kerala,Palakkad,07
10.76888889,76.64527778,Palakkad,Kerala,Palakkad,04
10.77222222,76.27916667,Pattambi Pz,Kerala,Palakkad,10
10.75416667,76.50555556,Peringottukurissu,Kerala,Palakkad,08
10.63777778,76.81666667,Plachimada,Kerala,Palakkad,06
10.85833333,76.45,Pullundassery,Kerala,Palakkad,08
10.91166667,76.41972222,Sreekrishnapuram,Kerala,Palakkad,10
10.87416667,76.12694444,Thiruvegapuram,Kerala,Palakkad,10
10.80277778,76.12638889,Trithala Pz,Kerala,Palakkad,10
10.81222222,76.24361111,Vadavakkurissi,Kerala,Palakkad,10
10.70277778,76.84638889,Vannamada,Kerala,Palakkad,05
10.89277778,76.18944444,Vilayur,Kerala,Palakkad,10
10.74972222,76.88611111,Villooni,Kerala,Palakkad,03
10.96666667,76.36666667,Ariyur,Kerala,Palakkad,10
10.99444444,76.48944444,Mannarkkad,Kerala,Palakkad,09
10.85388889,76.535,Banglow Kunnu,Kerala,Palakkad,09
10.86083333,76.62277778,Dhoni,Kerala,Palakkad,04
10.70805556,76.79611111,Ellissery,Kerala,Palakkad,05
10.76111111,76.43305556,Lakkidi (Ramakrishnapadi),Kerala,Palakkad,08
10.60777778,76.56361111,Melarkode,Kerala,Palakkad,07
10.65777778,76.47361111,Padur DW,Kerala,Palakkad,06
10.75611111,76.50444444,Peringottukurissu DW,Kerala,Palakkad,08
10.81027778,76.61833333,Pudhupariyaram,Kerala,Palakkad,04
10.86333333,76.45222222,Pullundassery,Kerala,Palakkad,08
10.83333333,76.62722222,Ummini,Kerala,Palakkad,04
10.59222222,76.76416667,Chulliar Dam,Kerala,Palakkad,06
10.87277778,76.45611111,Kadampazhipuram,Kerala,Palakkad,09
10.64944444,76.73861111,Pattanchery,Kerala,Palakkad,06
11.11666667,76.74722222,Anakatty,Kerala,Palakkad,55
10.58083333,76.80388889,Moochankundu,Kerala,Palakkad,06
10.86388889,76.23194444,Mulayankavu,Kerala,Palakkad,10
10.99416667,76.50416667,Palamattom,Kerala,Palakkad,09
10.74555556,76.15833333,Thirumittamcode  (Chathanur ),Kerala,Palakkad,10
10.80111111,76.62777778,Eruthenpathi,Kerala,Palakkad,04
10.80638889,76.63111111,Naikarapadi,Kerala,Palakkad,04
10.64361111,76.77944444,Nanniyode,Kerala,Palakkad,06
11.1,76.65,Agali  Pz,Kerala,Palakkad,55
11.11666667,76.74722222,Anakatty (R1),Kerala,Palakkad,55
10.62694444,76.77944444,Athikode,Kerala,Palakkad,06
10.80388889,76.77694444,Chullimada Pz,Kerala,Palakkad,04
10.80083333,76.77722222,Chullimada (R1),Kerala,Palakkad,04
10.79888889,76.66416667,Chunnambuthara,Kerala,Palakkad,04
10.63611111,76.52222222,Erattakulam,Kerala,Palakkad,06
10.65777778,76.51861111,Kavassery,Kerala,Palakkad,06
10.74861111,76.69,Kodumbu,Kerala,Palakkad,05
10.775,76.60611111,Kodunthirapalli,Kerala,Palakkad,05
10.61111111,76.68333333,Kollengode- II,Kerala,Palakkad,06
10.77527778,76.30805556,Koonathara,Kerala,Palakkad,10
11.13305556,76.68916667,Kottathara,Kerala,Palakkad,55
10.76583333,76.54333333,Kottayi,Kerala,Palakkad,08
10.8875,76.37138889,Kulakkad,Kerala,Palakkad,10
10.68194444,76.82111111,Kunnamkattupathy Pz,Kerala,Palakkad,05
10.74916667,76.54333333,Mathur,Kerala,Palakkad,08
10.80861111,76.60972222,Muttikulangara  Pz,Kerala,Palakkad,04
10.64361111,76.77944444,Nanniyodu Pz,Kerala,Palakkad,06
10.72944444,76.87722222,Nedupuni,Kerala,Palakkad,03
10.775,76.16527778,Nellikatteri,Kerala,Palakkad,10
10.62694444,76.77944444,Nellikattiri Pz,Kerala,Palakkad,06
10.62972222,76.61861111,Pallavur,Kerala,Palakkad,06
10.62694444,76.77944444,Panayur(Athikodu) Pz,Kerala,Palakkad,06
10.73083333,76.87222222,RVP Pudhur,Kerala,Palakkad,03
10.75777778,76.63166667,Vennakara,Kerala,Palakkad,05
10.98444444,76.48277778,Viyyakurissi,Kerala,Palakkad,09
10.81,76.66305556,Kadukkankunnu,Kerala,Palakkad,04
10.78472222,76.67138889,Kallepully,Kerala,Palakkad,04
10.76055556,76.78277778,Koppanur,Kerala,Palakkad,04
10.81638889,76.67333333,Malampuzha Pz,Kerala,Palakkad,04
10.72833333,76.77972222,Nalliapalli,Kerala,Palakkad,05
10.80416667,76.84972222,Vadakarapathy Pz,Kerala,Palakkad,04
10.70222222,76.85138889,Vannamada Pz,Kerala,Palakkad,03
10.62694444,76.77944444,Kulapully Pz,Kerala,Palakkad,06
12.19444444,75.46527778,Alacode,Kerala,Kannur,31
11.875,75.35416667,Cannanore1,Kerala,Kannur,25
11.88333333,75.475,Chakkarakkale,Kerala,Kannur,32
11.94027778,75.425,Cheleri,Kerala,Kannur,25
12.125,75.41388889,Chepparapadavu,Kerala,Kannur,31
12.075,75.26666667,Cheruthazam,Kerala,Kannur,20
12.20277778,75.29583333,Chural,Kerala,Kannur,20
11.80833333,75.44166667,Edakkad,Kerala,Kannur,32
11.93055556,75.51666667,Edayannur,Kerala,Kannur,32
11.98055556,75.53333333,Irikkur,Kerala,Kannur,25
11.93611111,75.70583333,Kakkeyamkadu,Kerala,Kannur,22
11.97777778,75.30833333,Kannapuram,Kerala,Kannur,31
11.84722222,75.675,Kannavam,Kerala,Kannur,32
11.875,75.36388889,Kannur,Kerala,Kannur,25
11.89444444,75.81444444,Kelakkam,Kerala,Kannur,22
11.90833333,75.44277778,Kizhallur,Kerala,Kannur,25
11.97222222,75.41111111,Kolacheri,Kerala,Kannur,25
11.84944444,75.73055556,Kommeri,Kerala,Kannur,32
11.85,75.73611111,Kommery,Kerala,Kannur,32
11.80222222,75.54583333,Kottayampoyil,Kerala,Kannur,32
11.86111111,75.86111111,Kottiyur,Kerala,Kannur,22
12.28888889,75.45138889,Kozhichal,Kerala,Kannur,21
12.0375,75.40833333,Kurumathur,Kerala,Kannur,31
11.90861111,75.75583333,Manathana,Kerala,Kannur,22
11.90833333,75.75833333,Manattana,Kerala,Kannur,22
12.13305556,75.30055556,Mathamangalam1,Kerala,Kannur,20
11.91666667,75.57083333,Mattanur,Kerala,Kannur,32
11.99166667,75.45,Mayyil,Kerala,Kannur,25
11.89861111,75.34833333,Munderi,Kerala,Kannur,25
12.12527778,75.43055556,Oduvallithattu,Kerala,Kannur,31
11.75,75.57916667,Panoor,Kerala,Kannur,21
11.79861111,75.56388889,Pattiyam,Kerala,Kannur,32
12.01666667,75.26666667,Pazhayangadi,Kerala,Kannur,31
12.29166667,75.4125,Peringome,Kerala,Kannur,21
12.03194444,75.42777778,Pukkundu,Kerala,Kannur,25
12.29222222,75.41444444,Pulingome,Kerala,Kannur,21
12.28333333,75.41666667,Pulingome1,Kerala,Kannur,21
12.06666667,75.18333333,Ramantalai,Kerala,Kannur,20
12.04166667,75.50833333,Sreekandapuram,Kerala,Kannur,24
12.03333333,75.36527778,Taliparamba,Kerala,Kannur,31
11.925,75.35833333,Valapattanam,Kerala,Kannur,25
12.25,75.31666667,Vayyakara,Kerala,Kannur,21
11.975,75.4,Parassinikadavu,Kerala,Kannur,25
11.93333333,75.68333333,Muzhakunnu,Kerala,Kannur,25
11.8475,75.61027778,Manantheri,Kerala,Kannur,32
11.87222222,75.57555556,Meruvambayi,Kerala,Kannur,32
11.77694444,75.57861111,Mokeri,Kerala,Kannur,32
11.74861111,75.4875,Thalassery,Kerala,Kannur,32
11.82694444,75.56527778,Koothuparamba,Kerala,Kannur,32
11.88333333,75.53722222,Anjarakandi,Kerala,Kannur,32
11.97472222,75.36805556,Kalliassery,Kerala,Kannur,31
12.06944444,75.38444444,Kanhirangad,Kerala,Kannur,31
12.04888889,75.22111111,Kunnaru,Kerala,Kannur,20
12.17472222,75.23472222,Mathil,Kerala,Kannur,20
11.74305556,75.57166667,Melepukkom,Kerala,Kannur,21
11.81194444,75.52138889,Panunda,Kerala,Kannur,32
11.98472222,75.38472222,Parassinikadavu DW,Kerala,Kannur,31
11.86361111,75.40833333,ThazheChovva,Kerala,Kannur,32
11.90138889,75.41805556,Varam,Kerala,Kannur,25
11.94722222,75.61027778,Chavassery,Kerala,Kannur,25
12.11055556,75.21944444,Payannur,Kerala,Kannur,20
11.8075,75.55083333,Kottayampoil,Kerala,Kannur,32
11.69722222,75.57111111,Pallikkuni,Kerala,Kannur,21
11.87666667,75.75666667,Kolakkad,Kerala,Kannur,22
11.85222222,75.69388889,Kolayad,Kerala,Kannur,32
11.90805556,75.77277778,Peravoor,Kerala,Kannur,22
11.90194444,75.73111111,Vattiyamthodu,Kerala,Kannur,22
11.82583333,75.51194444,Ambilad,Kerala,Kannur,32
11.87166667,75.39333333,Mele Chovva,Kerala,Kannur,25
11.99583333,75.75,Munderi,Kerala,Kannur,23
11.95916667,75.51666667,Nayattupara,Kerala,Kannur,25
11.90111111,75.34722222,Alavil,Kerala,Kannur,25
11.88277778,75.35333333,Chalad,Kerala,Kannur,25
12.26694444,75.35527778,Cherupuzha,Kerala,Kannur,21
12.06055556,75.56111111,Chundaparambu,Kerala,Kannur,24
11.92916667,75.54,Elambara,Kerala,Kannur,32
12.09166667,75.24888889,Ezhilode,Kerala,Kannur,20
12.10611111,75.28694444,Kadannapally,Kerala,Kannur,20
12.04638889,75.59027778,Kakkathodu,Kerala,Kannur,24
11.99805556,75.68555556,Kallumutty,Kerala,Kannur,23
11.97222222,75.41,Kolachery,Kerala,Kannur,25
12.05305556,75.53388889,Koottummukham,Kerala,Kannur,24
12.09083333,75.19416667,Kotty,Kerala,Kannur,20
12.02527778,75.70833333,Kunnoth,Kerala,Kannur,23
12.04777778,75.35,Kuppam,Kerala,Kannur,31
11.90388889,75.59944444,Kuyilur,Kerala,Kannur,32
12.045,75.63666667,Nuchiyad,Kerala,Kannur,24
12.13472222,75.44055556,Oduvalli,Kerala,Kannur,31
11.95,75.34222222,Pappinissery West,Kerala,Kannur,31
12.06805556,75.30555556,Pariyaram,Kerala,Kannur,20
11.91111111,75.36444444,Puthiyatheru,Kerala,Kannur,25
12.04222222,75.44777778,Valakkai,Kerala,Kannur,25
11.86444444,75.50944444,Vengad,Kerala,Kannur,32
11.98611111,75.37888889,Andoor,Kerala,Kannur,31
11.84611111,75.43472222,Chala,Kerala,Kannur,32
11.78333333,75.48055556,Dharmadam,Kerala,Kannur,32
12.14305556,75.2225,Echilamvayal,Kerala,Kannur,20
11.99583333,75.72388889,Edoor,Kerala,Kannur,23
12.01388889,75.2075,Ettikkulam,Kerala,Kannur,20
11.87388889,75.38277778,Kannur-Thana,Kerala,Kannur,25
12.00861111,75.75333333,Karikottakari,Kerala,Kannur,23
11.89611111,75.80305556,Kelakam,Kerala,Kannur,22
11.97583333,75.77444444,Kizhpalli,Kerala,Kannur,22
11.71111111,75.54166667,Mahe (R1),Kerala,Kannur,21
11.715,75.57611111,Mekunnu,Kerala,Kannur,21
11.81277778,75.49583333,Melur,Kerala,Kannur,32
12.04,75.28194444,Neruvambram,Kerala,Kannur,31
11.94055556,75.39472222,Palleri,Kerala,Kannur,25
11.76611111,75.5375,Palloor (Mahe),Kerala,Kannur,32
11.75166667,75.57944444,Pannoor,Kerala,Kannur,21
11.825,75.53055556,Pathiriyad,Kerala,Kannur,32
12.01111111,75.33388889,Pattuvam,Kerala,Kannur,31
11.81277778,75.49583333,Pinarayi,Kerala,Kannur,32
12.15833333,75.23055556,Kankole,Kerala,Kannur,20
12.03333333,75.66527778,Ulikkal,Kerala,Kannur,24
20.72916667,81.2,Balod,Chhattisgarh,Durg,08
20.49166667,81.08888889,Dondi,Chhattisgarh,Durg,07
21.19166667,81.275,Durg,Chhattisgarh,Durg,10
21.07638889,81.48333333,Funda,Chhattisgarh,Durg,20
20.94444444,81.29583333,Gunderdehi,Chhattisgarh,Durg,09
20.94444444,81.29527778,Gunderdehi1,Chhattisgarh,Durg,09
20.68333333,81.40833333,Gurur,Chhattisgarh,Durg,18
21.77777778,81.4375,Khati,Chhattisgarh,Durg,25
21.23333333,81.53333333,Kumhari,Chhattisgarh,Durg,21
20.64166667,81.08055556,Kusumkasa,Chhattisgarh,Durg,08
20.56861111,81.38111111,Markatola,Chhattisgarh,Durg,08
21.16666667,81.54583333,Motipur,Chhattisgarh,Durg,21
20.93333333,81.05138889,Nahalda,Chhattisgarh,Durg,05
21.03333333,81.55,Patan,Chhattisgarh,Durg,20
21.325,81.3375,Ravelidih,Chhattisgarh,Durg,13
20.82083333,81.05722222,Sambalpur,Chhattisgarh,Durg,05
21.36111111,81.41666667,Ahiwara,Chhattisgarh,Durg,15
20.94305556,81.20555556,Arjunda,Chhattisgarh,Durg,09
20.83333333,81.41388889,Armarikalan,Chhattisgarh,Durg,18
21.96388889,81.55,Ashoga,Chhattisgarh,Durg,30
20.8875,80.99722222,Bharnabhat,Chhattisgarh,Durg,05
21.775,81.6675,Bitkuli,Chhattisgarh,Durg,31
21.49166667,81.39444444,Dargaon,Chhattisgarh,Durg,15
20.58611111,81.07777778,Delli Rajhara,Chhattisgarh,Durg,08
21.56944444,81.21388889,Gatapar,Chhattisgarh,Durg,15
21.575,81.29166667,Jamgaon,Chhattisgarh,Durg,15
21.7125,81.61388889,Khurmuri,Chhattisgarh,Durg,31
21.35277778,81.2,Litia,Chhattisgarh,Durg,10
21.0375,81.45833333,Marra,Chhattisgarh,Durg,20
21.58805556,81.40138889,Parpoda,Chhattisgarh,Durg,17
20.87638889,81.28888889,Sikosa,Chhattisgarh,Durg,09
20.73611111,81.24722222,Umradah,Chhattisgarh,Durg,08
21.11666667,81.38888889,Utai-Adarshnagar,Chhattisgarh,Durg,21
21.83833333,81.5975,Andhiyarkhor,Chhattisgarh,Durg,30
20.78055556,81.06416667,Batera,Chhattisgarh,Durg,08
21.06666667,81.275,Anda,Chhattisgarh,Durg,09
21.71666667,81.53333333,Bemetera-d,Chhattisgarh,Durg,26
21.71666667,81.53333333,Bemetera-s,Chhattisgarh,Durg,26
21.06666667,81.43472222,Bohardih Pzi,Chhattisgarh,Durg,20
21.21722222,81.57611111,Bothi Pzi,Chhattisgarh,Durg,21
21.89583333,81.475,Darhi Pz I,Chhattisgarh,Durg,28
21.465,81.33472222,Dhamda-D,Chhattisgarh,Durg,15
20.49166667,81.08888889,Dondi1,Chhattisgarh,Durg,07
20.68333333,81.40833333,Gurur-d,Chhattisgarh,Durg,18
20.68333333,81.40833333,Gurur-s,Chhattisgarh,Durg,18
21.90833333,81.60833333,Nawagarh1,Chhattisgarh,Durg,30
21.90833333,81.60833333,Nawagarh-d,Chhattisgarh,Durg,30
21.61583333,81.62722222,Ranka Pz I,Chhattisgarh,Durg,26
20.82083333,81.05722222,Sambalpur2,Chhattisgarh,Durg,05
21.1,81.41944444,Selud1,Chhattisgarh,Durg,21
21.70166667,81.5375,Bemetara New,Chhattisgarh,Durg,26
21.24638889,81.51583333,Charoda,Chhattisgarh,Durg,21
21.89583333,81.475,Dadhi,Chhattisgarh,Durg,28
21.38666667,81.44472222,Girhola,Chhattisgarh,Durg,24
20.69916667,81.02305556,Kodiya,Chhattisgarh,Durg,08
21.67194444,81.47305556,Ninwa,Chhattisgarh,Durg,17
21.09944444,81.33194444,Powara,Chhattisgarh,Durg,09
21.50305556,81.45333333,Tarkori,Chhattisgarh,Durg,17
20.64611111,81.47166667,Balod Gahan,Chhattisgarh,Durg,18
21.20722222,81.41388889,Bhailai,Chhattisgarh,Durg,21
21.465,81.33472222,Dhamdha-s,Chhattisgarh,Durg,15
21.21527778,81.21388889,Ganiyari,Chhattisgarh,Durg,10
20.62222222,81.4425,Jagtara,Chhattisgarh,Durg,18
21.25694444,81.30638889,Jeora Sirsa,Chhattisgarh,Durg,10
20.97888889,81.28888889,Kachundur,Chhattisgarh,Durg,09
20.7925,81.05138889,Lohara,Chhattisgarh,Durg,08
21.90833333,81.60833333,Nawagarh-s,Chhattisgarh,Durg,30
21.90833333,81.60833333,Nawagarh,Chhattisgarh,Durg,30
20.54555556,81.10083333,Accholi,Chhattisgarh,Durg,07
20.74333333,81.05166667,Bhalukohna,Chhattisgarh,Durg,08
21.055,81.265,Binayakpur,Chhattisgarh,Durg,09
21.03111111,81.42777778,Bodal,Chhattisgarh,Durg,20
21.63777778,81.22,Bortara,Chhattisgarh,Durg,14
21.87694444,81.46444444,Chilphi,Chhattisgarh,Durg,30
21.08388889,81.30944444,Janjgiri,Chhattisgarh,Durg,09
21.63777778,81.62277778,Jeora,Chhattisgarh,Durg,26
21.39972222,81.36166667,Pathariya,Chhattisgarh,Durg,15
21.81222222,81.46472222,Sagona,Chhattisgarh,Durg,30
20.82305556,81.25805556,Sankri,Chhattisgarh,Durg,08
21.12111111,81.51055556,Tarra,Chhattisgarh,Durg,21
21.82388889,81.87194444,Temri,Chhattisgarh,Durg,31
21.12111111,81.56583333,Zhit,Chhattisgarh,Durg,20
21.71527778,81.58916667,Baba Mohtara,Chhattisgarh,Durg,26
21.76277778,81.48277778,Bahera,Chhattisgarh,Durg,26
21.76194444,81.51416667,Baiji,Chhattisgarh,Durg,26
21.65888889,81.55388889,Bijabhat,Chhattisgarh,Durg,26
20.95416667,81.25805556,Chichalgondi,Chhattisgarh,Durg,09
21.01166667,81.28694444,Danganiya,Chhattisgarh,Durg,09
21.68916667,81.48388889,Dunra,Chhattisgarh,Durg,26
20.66777778,81.13166667,Gujara,Chhattisgarh,Durg,07
21.03555556,81.49666667,Kashi,Chhattisgarh,Durg,20
21.24916667,81.22638889,Nagpura,Chhattisgarh,Durg,10
21.58888889,81.21055556,Parpoda,Chhattisgarh,Durg,15
21.53888889,81.43694444,Sondh New,Chhattisgarh,Durg,17
20.70138889,81.37972222,Tarri,Chhattisgarh,Durg,18
21.45888889,81.28805556,Barhapur,Chhattisgarh,Durg,15
20.7025,81.34083333,Chirchari,Chhattisgarh,Durg,18
21.07027778,81.49666667,Dewada,Chhattisgarh,Durg,20
21.66833333,81.30527778,Jata,Chhattisgarh,Durg,16
21.68333333,81.53,Khilora,Chhattisgarh,Durg,26
20.60694444,81.28861111,Talgaon,Chhattisgarh,Durg,08
20.98444444,80.98194444,Jeortala,Chhattisgarh,Durg,04
21.09722222,81.53416667,Khurdimudi,Chhattisgarh,Durg,20
21.70416667,81.42722222,Kusmi,Chhattisgarh,Durg,17
21.59972222,81.26,Mouhabhata,Chhattisgarh,Durg,15
21.04444444,81.52833333,Sikola,Chhattisgarh,Durg,20
21.69194444,81.22305556,Bhurki,Chhattisgarh,Durg,15
21.45944444,81.32944444,Dhamda New,Chhattisgarh,Durg,15
20.85583333,81.13444444,Mudkhusra New,Chhattisgarh,Durg,08
21.04777778,81.25611111,Vinayakpur New,Chhattisgarh,Durg,09
21.00194444,81.48722222,Darbarmukhli,Chhattisgarh,Durg,20
20.58805556,81.18111111,Ghotia,Chhattisgarh,Durg,07
21.74805556,81.32555556,Jewari,Chhattisgarh,Durg,16
21.84083333,81.46111111,Jhalam,Chhattisgarh,Durg,30
21.47861111,81.44444444,Mohrenga,Chhattisgarh,Durg,17
21.05666667,81.20166667,Nikum,Chhattisgarh,Durg,09
21.70416667,81.22555556,Piparia,Chhattisgarh,Durg,15
21.5475,81.54638889,Kharra,Chhattisgarh,Durg,26
20.98222222,81.435,Kumhli,Chhattisgarh,Durg,20
20.95333333,81.31694444,Machod,Chhattisgarh,Durg,09
21.67,81.39861111,Beeja,Chhattisgarh,Durg,17
21.29416667,81.32388889,Karanja Bhilai,Chhattisgarh,Durg,10
21.18277778,81.55333333,Sankra,Chhattisgarh,Durg,21
21,81.54972222,Teligundra,Chhattisgarh,Durg,20
21.1,81.41944444,Selud,Chhattisgarh,Durg,21
21.71666667,81.53333333,Bemetara,Chhattisgarh,Durg,26
13.025,80.25833333,Alwarpet,Tamil Nadu,Chennai,55
13.00138889,80.27,Besant Nagar,Tamil Nadu,Chennai,55
13.05555556,80.28138889,Chepauk (A),Tamil Nadu,Chennai,55
13.02222222,80.225,Guindy(CLRI),Tamil Nadu,Chennai,55
13.04166667,80.20833333,K.K.Nagar,Tamil Nadu,Chennai,55
13.11666667,80.275,Tondiarpet,Tamil Nadu,Chennai,34
13.10555556,80.28138889,Vallalar Nagar,Tamil Nadu,Chennai,34
13.08333333,80.27083333,Vepery,Tamil Nadu,Chennai,34
13.01666667,80.26666667,Adyar,Tamil Nadu,Chennai,55
12.98333333,80.23333333,"NITTR, Taramani",Tamil Nadu,Chennai,56
13.008908,80.262662,ADAYAR_1,Tamil Nadu,Chennai,55
12.998462,80.264539,BEASANT NAGAR,Tamil Nadu,Chennai,56
13.116967,80.285188,WASAHERMENPET,Tamil Nadu,Chennai,34
13.1,80.25,Vyasarpadi,Tamil Nadu,Chennai,34
10.93333333,79.84166667,Kilakasakudi,Puducherry,Karaikal,26
10.95833333,79.81666667,Kottucherry,Puducherry,Karaikal,26
10.98242,79.8207,KARAI KOVILPATHU,Puducherry,Karaikal,25
10.929362,79.783752,THENOOR_1,Puducherry,Karaikal,26
10.993391,79.843292,THIRVETTAKUDY,Puducherry,Karaikal,25
10.993075,79.841065,THIRVETTAKUDY,Puducherry,Karaikal,25
10.994158,79.851467,THIRVETTAKUDY_1,Puducherry,Karaikal,25
11.8,79.78333333,Kattukuppam,Puducherry,Puducherry,23
11.92555556,79.73611111,Mangalam1,Puducherry,Puducherry,43
11.89222222,79.73611111,Mangalam2,Puducherry,Puducherry,43
11.91194444,79.82333333,Pondicherry,Puducherry,Puducherry,43
11.88333333,79.76666667,Reddichavadi,Puducherry,Puducherry,43
11.91666667,79.75833333,Villanur,Puducherry,Puducherry,43
11.89222222,79.73611111,Mangalam3,Puducherry,Puducherry,43
11.89222222,79.73611111,Mangalam4,Puducherry,Puducherry,43
11.89222222,79.73611111,Mangalam5,Puducherry,Puducherry,43
11.972304,79.813212,KARUVADUKUPPAM_1,Puducherry,Puducherry,43
11.972304,79.813212,KARUVADUKUPPAM_2,Puducherry,Puducherry,43
11.808834,79.68706,MANAMEDU_1,Puducherry,Puducherry,23
11.808834,79.68706,MANAMEDU_2,Puducherry,Puducherry,23
12.014644,79.850244,PILLAICHAVADI,Puducherry,Puducherry,46
11.909221,79.751127,VILLIANUR_1,Puducherry,Puducherry,43
16.73027778,82.21388889,Bandurlanka-DW13,Puducherry,Yanam,65
